LocationId,LocationName,Address,Address2,TownCity,Country,Postcode,PhoneNumber,Monday,Tuesday,Wednesday,Thursday,Friday,Saturday,Sunday,ProductCard,ContactDetail,Longitude,Latitude,isYextRestrict,RichText,PlantType,CompanyName,LocationImage,FileCard,AddPage,PublisherImages,State,Region,isLocationClosed
,"CEMENTÁRNA PRACHOVICE - Cemex Czech Republic, s.r.o.",Tovární 296,Pardubický kraj,Prachovice,Czech Republic,538 04, 469 606 300,"openTime_1 : 07:15, closeTime_1 : 17:15","openTime_1 : 07:15, closeTime_1 : 17:15","openTime_1 : 07:15, closeTime_1 : 17:15","openTime_1 : 07:15, closeTime_1 : 17:15","openTime_1 : 07:15, closeTime_1 : 17:15","openTime_1 : 07:15, closeTime_1 : 12:15",Closed,-,"ContactName_1 : Sales Enquiries,  JobPosition_1 : -,  EmailAddress_1 : -,  PhoneNumber1_1 : 01417327337",15.63408233,49.89508676,TRUE,"Cementárna v Prachovicích patří společnosti Cemex od roku 2015. Vyrábí se zde široká škála různých druhů cementu. Nabízíme cement volně ložený i pytlovaný. <br><br>CEMEX Czech Republic, s.r.o. - cementárna Prachovice Tovární 296 538 04, Prachovice IČO: 27892638.",Cement,-,,-,,-,-,Pardubický kraj,FALSE
,"Betonárna Praha - Libuš, Cemex Czech Republic, s.r.o.",Obrataňská,Hlavní město Praha,Praha,Czech Republic,146 00, 257 257 600,"openTime_1 : 07:15, closeTime_1 : 17:15","openTime_1 : 07:15, closeTime_1 : 17:15","openTime_1 : 07:15, closeTime_1 : 17:15","openTime_1 : 07:15, closeTime_1 : 17:15","openTime_1 : 07:15, closeTime_1 : 17:15","openTime_1 : 07:15, closeTime_1 : 12:15",Closed,-,"ContactName_1 : Sales Enquiries,  JobPosition_1 : -,  EmailAddress_1 : -,  PhoneNumber1_1 : 01417327337",14.46933205,50.01244688,TRUE,"Betonárna LIEBHERR RIM 2,25 s objemem 2,25 m3 a hodinovým výkonem 75m3 je vybavena celoročním automatickým počítačem řízeným provozem. Pro zimní období je vybavena zařízením pro ohřev záměsové vody a pro předehřev kameniva. K dispozici je i recyklační zařízení pro zpracování zbytkového betonu. Betonárna se nachází v Praze a její služby jsou dostupné i v okolních městech jako jsou Chodov, Písnice, Dolní Břežany, Kamýk, Modřany Jesenice, Průhonice či například Psáry. Nabízíme špičkovou kvalitu anhydritových litých potěrů Anhylevel, cementových litých potěrů CemLevel, konstrukčních betonů, samozhutnitelných betonů Compacton, drátkobetonů, vláknobetonů, písku a štěrku. Kromě toho poskytujeme autodopravu mixem, pumpování (čerpání) betonu.",Concrete,-,,-,,-,-,Hlavní město Praha,FALSE
,"Lom Smrčí, Cemex Czech Republic, s.r.o.",Smrčí 58,Liberecký kraj,Semily,Czech Republic,513 01, 773 745 749,"openTime_1 : 07:00, closeTime_1 : 17:00","openTime_1 : 07:00, closeTime_1 : 17:00","openTime_1 : 07:00, closeTime_1 : 17:00","openTime_1 : 07:00, closeTime_1 : 17:00","openTime_1 : 07:30, closeTime_1 : 17:00","openTime_1 : 07:00, closeTime_1 : 12:00",Closed,-,"ContactName_1 : Concrete Sales,  JobPosition_1 : -,  EmailAddress_1 : -,  PhoneNumber1_1 : 0191 731 4759
ContactName_2 : Concrete Account Orders,  JobPosition_2 : -,  EmailAddress_2 : -,  PhoneNumber1_2 : 01748 811935
ContactName_3 : Mortar Screed Sales,  JobPosition_3 : -,  EmailAddress_3 : -,  PhoneNumber1_3 : 0345 155 1811",15.26890341,50.62376552,TRUE,"Kamenolom Smrčí nabízí širokou škálu přírodního drceného kameniva čediče, které je vhodné pro stavební účely, betonové a asfaltové směsi. Naše kamenivo je dostupné ve frakcích 0/4, 4/8, 8/16, 11/22, 16/32, 32/63, 0/32, 0/63 a 32/63. Nabízíme také lomový kámen (LKZ) a lomový třískový kámen (LKT). Naše těžené kamenivo je dostupné ve frakcích 0/4 a 16/32. Prodloužení výdejní doby je možné na základě povolení obchodního zástupce. <br><br>Zajistíme smluvní přepravce, kteří mohou dovézt kamenivo do Železného Brodu, Malé Skály, Bozkova či Semil, stejně jako do jejich okolí. Naše kamenivo je ideální pro nejrůznější stavební účely, včetně zásypu drenáže, dětských hřišť a zahradních projektů.",Aggregates,-,,-,,-,-,Liberecký kraj,FALSE
,"Betonárna Jihlava - Pávov, Cemex Czech Republic, s.r.o.",Pávovská,Kraj Vysočina,Jihlava 1,Czech Republic,586 02, 602 531 231,"openTime_1 : 07:00, closeTime_1 : 17:00","openTime_1 : 07:00, closeTime_1 : 17:00","openTime_1 : 07:00, closeTime_1 : 17:00","openTime_1 : 07:00, closeTime_1 : 17:00","openTime_1 : 07:30, closeTime_1 : 17:00","openTime_1 : 07:00, closeTime_1 : 12:00",Closed,-,"ContactName_1 : Sales,  JobPosition_1 : -,  EmailAddress_1 : -,  PhoneNumber1_1 : 0345 155 9208
ContactName_2 : Orders,  JobPosition_2 : -,  EmailAddress_2 : -,  PhoneNumber1_2 : 0345 601 2481",15.60823585,49.44188317,TRUE,"Betonárna BHS 2.0 m3 s míchacím jádrem BHS DKX 2.0 a hodinovým výkonem 80 m čerstvého betonu. Automatický, počítačem řízený provoz po celý rok. Zařízení pro ohřev záměsové vody a kameniva pro zimní období. Recyklační zařízení pro zpracování zbytkového betonu. Betonárna se nachází v Jihlavě a její služby jsou dostupné i v okolních městech jako jsou Havlíčkův Brod, Žďár nad Sázavou, Třebíč, Pelhřimov a Telč. Nabízíme špičkovou kvalitu produktů jako jsou Anhydritové lité potěry Anhylevel, Anhylevel Heat, Anhylevel Extranivel, Cementové lité potěry, CemLevel, konstrukční betony, samozhutnitelné betony Compacton, drátkobetony, vláknobetony, písek a štěrk. Dále nabízíme autodopravu mixem, pumpování a čerpání betonu. Objednejte si beton u nás!",Concrete,-,,-,,-,-,Kraj Vysočina,FALSE
,"Betonárna Vsetín - Cemex Czech Republic, s.r.o.",Lhota u Vsetína,Zlínský kraj,Lhota u Vsetína-Vsetín,Czech Republic,755 01, 606 724 017,"openTime_1 : 07:30, closeTime_1 : 17:00","openTime_1 : 07:30, closeTime_1 : 17:00","openTime_1 : 07:30, closeTime_1 : 17:00","openTime_1 : 07:30, closeTime_1 : 17:00","openTime_1 : 07:30, closeTime_1 : 17:00","openTime_1 : 07:30, closeTime_1 : 12:00",Closed,-,"ContactName_1 : Tel,  JobPosition_1 : -,  EmailAddress_1 : -,  PhoneNumber1_1 : 0800 667827",17.9692886,49.3127935,TRUE,"Betonárna BHS 2.0 s hodinovým výkonem 80 m čerstvého betonu se nachází ve Vsetíně. Nabízíme špičkovou kvalitu anhydritových litých potěrů Anhylevel, Anhylevel Heat, Anhylevel Extranivel, cementových litých potěrů CemLevel, konstrukční betony, samozhutnitelné betony Compacton, drátkobetony, vláknobetony, písek a štěrk. Dále nabízíme autodopravu mixem, pumpování a čerpání betonu. Naše betonárna usiluje o udržitelnou výstavbu pomocí produktů řady Vertua. Naše služby jsou dostupné v okolí Vsetína, například ve městech Ratiboř, Hovězí, Liptál či například Jablůnka. Vybírejte z naší široké nabídky produktů a služeb pro své projekty.Na našich stránkách si můžete spočítat objem betonu a získat nezáaznou cenovou nabídku.",Concrete,-,,-,,-,-,Zlínský kraj,FALSE
,"Betonárna Praha - Horní Počernice, Cemex Czech Republic, s.r.o.",Františka Vítězslava Veselého,Hlavní město Praha,Praha,Czech Republic,193 00, 257 257 600,"openTime_1 : 07:00, closeTime_1 : 18:00","openTime_1 : 07:00, closeTime_1 : 18:00","openTime_1 : 07:00, closeTime_1 : 18:00","openTime_1 : 07:00, closeTime_1 : 18:00","openTime_1 : 07:00, closeTime_1 : 18:00","openTime_1 : 07:00, closeTime_1 : 12:00",Closed,-,"ContactName_1 : Concrete Sales,  JobPosition_1 : -,  EmailAddress_1 : -,  PhoneNumber1_1 : 0345 600 6464
ContactName_2 : Concrete Account Orders,  JobPosition_2 : -,  EmailAddress_2 : -,  PhoneNumber1_2 : 0845 155 9215
ContactName_3 : Aggregate Asphalt Sales,  JobPosition_3 : -,  EmailAddress_3 : -,  PhoneNumber1_3 : 0345 155 2410",14.6153182,50.1201903,TRUE,"Betonárna HBS 2 m s hodinovým výkonem 70 m čerstvého betonu je vybavena zařízením pro ohřev záměsové vody a má celoroční automatický, počítačem řízený provoz. Naše betonárna se nachází v Praze a její služby jsou dostupné i v okolních městech jako jsou Radonice, Satalice, Svémyslice, Zeleneč, Šestajovice či Černý Most. Nabízíme špičkovou kvalitu produktů jako jsou Anhydritové lité potěry Anhylevel, Anhylevel Heat, Anhylevel Extranivel, Cementové lité potěry, CemLevel, konstrukční betony, samozhutnitelné betony Compacton, drátkobetony, vláknobetony, písek a štěrk. Dále nabízíme autodopravu mixem, pumpování a čerpání betonu. Cemex usiluje o udržitelnou výstavbu pomocí produktů řady Vertua. Na našich stránkách si můžete spočítat objem betonu.",Concrete,-,,-,,-,-,Hlavní město Praha,FALSE
,"Betonárna Brno, Cemex Czech Republic, s.r.o.",Masná 110,Jihomoravský kraj,Brno-Brno-jih,Czech Republic,602 00, 602 595 987,"openTime_1 : 06:00, closeTime_1 : 19:00","openTime_1 : 06:00, closeTime_1 : 19:00","openTime_1 : 06:00, closeTime_1 : 19:00","openTime_1 : 06:00, closeTime_1 : 19:00","openTime_1 : 06:00, closeTime_1 : 19:00","openTime_1 : 06:00, closeTime_1 : 12:00",Closed,-,"ContactName_1 : Concrete Sales,  JobPosition_1 : -,  EmailAddress_1 : -,  PhoneNumber1_1 : 0345 600 6464
ContactName_2 : Concrete Account Orders,  JobPosition_2 : -,  EmailAddress_2 : -,  PhoneNumber1_2 : 0345 155 6053
ContactName_3 : Mortar Screed Sales,  JobPosition_3 : -,  EmailAddress_3 : -,  PhoneNumber1_3 : 0345 155 1811",16.62689452,49.18058686,TRUE,"Betonárna BHS V2.25 s hodinovým výkonem 80 m čerstvého betonu je situována v Brně. Nabízíme špičkovou kvalitu anhydritových litých potěrů Anhylevel, Anhylevel Heat, Anhylevel Extranivel, cementových litých potěrů CemLevel, konstrukční betony, samozhutnitelné betony Compacton, drátkobetony, vláknobetony, písek a štěrk. Autodoprava mixem, pumpování a čerpání betonu. Naše betonárna v Brně nabízí celoroční automatický, počítačem řízený provoz. Díky naší betonárně mohou lidé z okolí Brna, jako jsou například Tuřany, Lány, Heršpice, Ivančice, Šlapanice, Líšeň, Žabovřesky, Starý Lískovec či Ivanovice. Objednejte kvalitní čerstvý beton pro svůj projekt. Udržitelnost výstavby je pro nás důležitá, proto nabízíme produkty řady Vertua.",Concrete,-,,-,,-,-,Jihomoravský kraj,FALSE
,"Betonárna Poděbrady, Cemex Czech Republic, s.r.o.",Za Bažantnicí,Středočeský kraj,Poděbrady 1,Czech Republic,290 01, 606 635 978,"openTime_1 : 07:30, closeTime_1 : 17:30","openTime_1 : 07:30, closeTime_1 : 17:30","openTime_1 : 07:30, closeTime_1 : 17:30","openTime_1 : 07:30, closeTime_1 : 17:30","openTime_1 : 07:30, closeTime_1 : 17:30",Closed,Closed,-,"ContactName_1 : Shipping Office (North West),  JobPosition_1 : -,  EmailAddress_1 : -,  PhoneNumber1_1 : 0345 155 9265
ContactName_2 : Concrete Sales,  JobPosition_2 : -,  EmailAddress_2 : -,  PhoneNumber1_2 : 0345 600 6464
ContactName_3 : Concrete Account Orders,  JobPosition_3 : -,  EmailAddress_3 : -,  PhoneNumber1_3 : 0345 155 9265
ContactName_4 : Screed Sales Only Orders,  JobPosition_4 : -,  EmailAddress_4 : -,  PhoneNumber1_4 : 0345 155 9265",15.1454144,50.14466312,TRUE,"Betonárna Teka 1,25 m s hodinovým výkonem 45 m čerstvého betonu je vybavena zařízením pro ohřev záměsové vody pro zimní období. Automatický, počítačem řízený provoz zajišťuje celoroční spolehlivost. Betonárna se nachází v Poděbradech a její služby jsou dostupné i v okolních městech jako jsou Křečkov, Nymburk, Pátek, Netřebice, či třeba Budiměřice. Nabízíme špičkovou kvalitu anhydritových litých potěrů Anhylevel, Anhylevel Heat, Anhylevel Extranivel, cementových litých potěrů CemLevel, konstrukční betony, samozhutnitelné betony Compacton, drátkobetony, vláknobetony, písek a štěrk. Dále nabízíme autodopravu mixem, pumpování a čerpání betonu. Cemex usiluje o udržitelnou výstavbu pomocí produktů řady Vertua.",Concrete,-,,-,,-,-,Středočeský kraj,FALSE
,"Lom Úhošťany, Cemex Czech Republic, s.r.o.",Kadaň,Ústí nad Labem Region,Kadaň,Czech Republic,43201, 773 745 748,"openTime_1 : 07:00, closeTime_1 : 17:00","openTime_1 : 07:00, closeTime_1 : 17:00","openTime_1 : 07:00, closeTime_1 : 17:00","openTime_1 : 07:00, closeTime_1 : 17:00","openTime_1 : 07:00, closeTime_1 : 17:00","openTime_1 : 07:00, closeTime_1 : 10:00",Closed,-,"ContactName_1 : Concrete Sales,  JobPosition_1 : -,  EmailAddress_1 : -,  PhoneNumber1_1 : 0345 600 6464
ContactName_2 : Concrete Account Orders,  JobPosition_2 : -,  EmailAddress_2 : -,  PhoneNumber1_2 : 01296 399 434
ContactName_3 : Mortar Screed Sales,  JobPosition_3 : -,  EmailAddress_3 : -,  PhoneNumber1_3 : 0345 147 9172",13.280368,50.358741,TRUE,"Kamenolom Úhoštany nabízí prodej kameniva pro nejrůznější stavební účely, jako je například zásyp drenáže, dětská hřiště, nebo zahradní kamenivo. Vyrábíme drcené kamenivo ve frakcích 0/4, 0/8, 4/8, 8/16, 11/22, 0/22, 0/32, 0/63, 32/63, 63/125, 63/250 a také lomový kámen záhozový a horninu Čedič (Bazalt).<br><br>Kromě toho nabízíme i smluvní přepravce, kteří dovezou kamenivo do Rokle, Klášterec nad Ohří, Tušimice, ChomutovKadaň a jejich okolí. Prodloužení výdejní doby je možné na základě povolení obchodního zástupce. Pokud hledáte kvalitní kamenivo pro své stavební účely, nebo na zahradu, obraťte se na naše obchodní zástupce a my Vám rádi pomůžeme. Nabízíme širokou škálu kameniva, které můžete využít pro své potřeby.",Concrete,-,,-,,-,-,Ústí nad Labem Region,FALSE
,"Betonárna Břeclav - Poštorná, Cemex Czech Republic, s.r.o.",Hraniční,Jihomoravský kraj,Breclav,Czech Republic,691 41, 606 748 203,"openTime_1 : 07:00, closeTime_1 : 17:00","openTime_1 : 07:00, closeTime_1 : 17:00","openTime_1 : 07:00, closeTime_1 : 17:00","openTime_1 : 07:00, closeTime_1 : 17:00","openTime_1 : 07:00, closeTime_1 : 17:00","openTime_1 : 07:00, closeTime_1 : 12:00",Closed,-,"ContactName_1 : Concrete Sales,  JobPosition_1 : -,  EmailAddress_1 : -,  PhoneNumber1_1 : 01226 988 959
ContactName_2 : Concrete Account Orders,  JobPosition_2 : -,  EmailAddress_2 : -,  PhoneNumber1_2 : 0345 155 6053
ContactName_3 : Mortar Screed Sales,  JobPosition_3 : -,  EmailAddress_3 : -,  PhoneNumber1_3 : 01788 462 016",16.865752,48.741508,TRUE,"Betonárna Stetter H1.0 s hodinovým výkonem 50 m čerstvého betonu nabízí špičkovou kvalitu betonu a anhydritových potěrů. Automatický, počítačem řízený provoz zajišťuje celoroční dostupnost. Betonárna se nachází v blízkosti měst Břeclav - Poštorná. Jsme však schopni dovézt čerstvý beton i do okolí jako do měst Lednice, Valtice, Lanžhot či Velké Bílovice. Nabízíme konstrukční betony, samozhutnitelné betony Compacton, drátkobetony, vláknobetony, písek a štěrk. Autodopravu mixem, pumpování (čerpání) betonu. Produkty řady Vertua od Cemexu usilují o udržitelnější výstavbu. Na našich stránkách si můžete spočítat cenu betonu a zažádat o nezávaznou cenovou nabídku.",Concrete,-,,-,,-,-,Jihomoravský kraj,FALSE
,"Betonárna Kolín - Cemex Czech Republic, s.r.o.",Veltrubská 1527,Středočeský kraj,Kolín-Kolín,Czech Republic,280 02, 606 635 977,"openTime_1 : 07:00, closeTime_1 : 17:00","openTime_1 : 07:00, closeTime_1 : 17:00","openTime_1 : 07:00, closeTime_1 : 17:00","openTime_1 : 07:00, closeTime_1 : 17:00","openTime_1 : 07:00, closeTime_1 : 17:00","openTime_1 : 07:00, closeTime_1 : 11:00",Closed,-,"ContactName_1 : Concrete Sales,  JobPosition_1 : -,  EmailAddress_1 : -,  PhoneNumber1_1 : 0345 600 6464
ContactName_2 : Concrete Account Orders,  JobPosition_2 : -,  EmailAddress_2 : -,  PhoneNumber1_2 : 01908 766658
ContactName_3 : Mortar Screed Sales,  JobPosition_3 : -,  EmailAddress_3 : -,  PhoneNumber1_3 : 0345 147 9172",15.20035673,50.04579056,TRUE,"Betonárna TEKA 1 m s hodinovým výkonem 40 m čerstvého betonu je vybavena zařízením pro ohřev záměsové vody pro zimní období a má celoroční automatický, počítačem řízený provoz. Betonárka se nachází v Kolíně a její služby jsou dostupné i v okolních městech jako jsou Velim, Veltruby, Cerhenice či například Pečky. Nabízíme špičkovou kvalitu anhydritových litých potěrů Anhylevel, Anhylevel Heat, Anhylevel Extranivel, cementových litých potěrů CemLevel, konstrukčních betonů, samozhutnitelných betonů Compacton, drátkobetonů, vláknobetonů, písku a štěrku. Kromě toho poskytujeme autodopravu mixem, pumpování a čerpání betonu. Cemex se zavazuje k udržitelné výstavbě pomocí produktů řady Vertua. Na našich stánkách si můžete spočítat objem betonu.",Concrete,-,,-,,-,-,Středočeský kraj,FALSE
,"Betonárna Dvůr Králové, Cemex Czech Republic, s.r.o.",Tyršova,Královéhradecký kraj,Dvůr Králové nad Labem 1,Czech Republic,544 01, 602 463 006,"openTime_1 : 07:00, closeTime_1 : 17:00","openTime_1 : 07:00, closeTime_1 : 17:00","openTime_1 : 07:00, closeTime_1 : 17:00","openTime_1 : 07:00, closeTime_1 : 17:00","openTime_1 : 07:00, closeTime_1 : 17:00",Closed,Closed,-,"ContactName_1 : Aggregate Asphalt Sales,  JobPosition_1 : -,  EmailAddress_1 : -,  PhoneNumber1_1 : 0345 155 9208",15.821504,50.4420775,TRUE,"Betonárna CE 55 s míchacím zařízením RTM 1506 a s hodinovým výkonem 37 m čerstvého betonu je situována v Dvůr Králové. Betonárna je vybavena zařízením pro ohřev záměsové vody a recyklačním zařízením pro zpracování zbytkového betonu. Nabízíme špičkovou kvalitu anhydritových litých potěrů Anhylevel, cementových litých potěrů CemLevel, konstrukčních betonů, samozhutnitelných betonů Compacton, drátkobetonů, vláknobetonů, písku a štěrku. Autodopravu mixem, pumpování a čerpání betonu. Betonárna Dvůr Králové je vybavena pro poloautomatický provoz po celý rok a dokáže dovézt čerstvý beton do okolních měst jako jsou Nemojov, Bílá Třemešná, Doubravice či třeba Vítězná. Produky řady Vertua podporují udržitelnou výstavbu.",Concrete,-,,-,,-,-,Královéhradecký kraj,FALSE
,"Štěrkovna Čeperka, Cemex Czech Republic, s.r.o.",Staré Ždánice 330,Pardubický kraj,Staré Ždánice,Czech Republic,533 45, 466 980 029,"openTime_1 : 07:00, closeTime_1 : 17:00","openTime_1 : 07:00, closeTime_1 : 17:00","openTime_1 : 07:00, closeTime_1 : 17:00","openTime_1 : 07:00, closeTime_1 : 17:00","openTime_1 : 07:00, closeTime_1 : 17:00","openTime_1 : 07:00, closeTime_1 : 12:00",Closed,-,"ContactName_1 : Concrete Sales,  JobPosition_1 : -,  EmailAddress_1 : -,  PhoneNumber1_1 : 0345 600 6464
ContactName_2 : Concrete Account Orders,  JobPosition_2 : -,  EmailAddress_2 : -,  PhoneNumber1_2 : 0345 155 9265
ContactName_3 : Mortar Screed Sales,  JobPosition_3 : -,  EmailAddress_3 : -,  PhoneNumber1_3 : 0345 147 9172",15.73179423,50.11593662,TRUE,"Štěrkovna Čeperka nabízí široký sortiment kameniva ve frakcích od 0/4 až do 32/63. Můžete si vybrat z prodeje kameniva, písku, drceného kameniva, lomového kamene, stěrkopísku a zahradního kameniva. Všechny tyto produkty lze použít pro nejrůznější stavební účely, jako je například zásyp drenáže, dětská hřiště, zahradní úpravy a další. <br><br>Frakce 0/4 Sport a 4/8 Sport, které jsou vhodné pro různá sportoviště, jako je plážový volejbal, fotbalová hřiště, golfová hřiště a další. Kromě toho můžeme nabídnout i dodávky systémem Big Bag.<br><br>Štěrkovna dováží kamenivo do Lázní Bohdaneč, Pardubic, Přelouče, Starého Ždánice a jeho okolí. Pokud hledáte kvalitní kamenivo, neváhejte se obrátit na naše obchodní zástupce.",Aggregates,-,,-,,-,-,Pardubický kraj,FALSE
,"Betonárna Hradec Králové - Plačice, Cemex Czech Republic, s.r.o.",Pardubická,Královéhradecký kraj,Hradec Králové,Czech Republic,500 04, 606 613 905,"openTime_1 : 06:00, closeTime_1 : 14:30","openTime_1 : 06:00, closeTime_1 : 14:30","openTime_1 : 06:00, closeTime_1 : 14:30","openTime_1 : 06:00, closeTime_1 : 14:30","openTime_1 : 06:00, closeTime_1 : 14:30","openTime_1 : 06:00, closeTime_1 : 09:30",Closed,-,"ContactName_1 : Asphalt Sales,  JobPosition_1 : -,  EmailAddress_1 : -,  PhoneNumber1_1 : 0121 271 0137",15.78830228,50.19316913,TRUE,"Betonárna PEMAT/RANGER v Hradci Králové - Plačicích je vybavena míchacím zařízením TEKA THZ 3000 s objemem mísícího jádra 2 m a hodinovým výkonem 50 m čerstvého betonu. Betonárna je vybavena zařízením pro ohřev záměsové vody a recyklačním zařízením pro zpracování zbytkového betonu. Nabízíme špičkovou kvalitu anhydritových litých potěrů Anhylevel, Anhylevel Heat, Anhylevel Extranivel, cementových litých potěrů CemLevel, konstrukčních betonů, samozhutnitelných betonů Compacton, drátkobetonů, vláknobetonů, písku a štěrku. Autodopravu mixem, pumpování a čerpání betonu zajišťujeme po celém okolí Hradce Králové, jako například Opatovice, Čeperka, či například Libčany. Využijte našich produktů řady Vertua pro udržitelnou výstavbu.",Concrete,-,,-,,-,-,Královéhradecký kraj,FALSE
,"Betonárna Pardubice - Semtín II, Cemex Czech Republic, s.r.o.",Rosice nad Labem 755,Pardubický kraj,Pardubice,Czech Republic,53351, 602 471 959,"openTime_1 : 07:00, closeTime_1 : 17:00","openTime_1 : 07:00, closeTime_1 : 17:00","openTime_1 : 07:00, closeTime_1 : 17:00","openTime_1 : 07:00, closeTime_1 : 17:00","openTime_1 : 07:00, closeTime_1 : 17:00",Closed,Closed,-,"ContactName_1 : Aggregate Asphalt Sales,  JobPosition_1 : -,  EmailAddress_1 : -,  PhoneNumber1_1 : 0345 155 2410
ContactName_2 : Tel,  JobPosition_2 : -,  EmailAddress_2 : -,  PhoneNumber1_2 : 01622 710431",15.73730878,50.05485442,TRUE,"Betonárna Zeman s typem Elba 1000 a hřídelovou technologií vám nabízí špičkovou kvalitu betonu s hodinovým výkonem 1 m3. Naše betonárna se nachází v Pardubicích a nabízíme širokou škálu produktů, jako jsou anhydritové lité potěry Anhylevel, Anhylevel Heat, Anhylevel Extranivel, Cementové lité potěry, CemLevel, konstrukční betony, samozhutnitelné betony Compacton, drátkobetony, vláknobetony, písek a štěrk. Kromě toho nabízíme autodopravu mixem, pumpování a čerpání betonu. Naše produkty řady Vertua usilují o udržitelnou výstavbu. Naše betonárna dokáže dovézt čerstvý beton do okolních měst, jako jsou Hradec Králové, Chrudim, Břehy, Staré Hradiště, Srnojedy, Rybitví, Zdětín a další. Můžete si u nás spočítat objem betonu a poptat jeho cenu.",Concrete,-,,-,,-,-,Pardubický kraj,FALSE
,"Betonárna Děčín, Cemex Czech Republic, s.r.o.",Benešovská,Ústecký kraj,Děčín,Czech Republic,405 01, 602 464 202,"openTime_1 : 07:00, closeTime_1 : 18:00","openTime_1 : 07:00, closeTime_1 : 18:00","openTime_1 : 07:00, closeTime_1 : 18:00","openTime_1 : 07:00, closeTime_1 : 18:00","openTime_1 : 07:00, closeTime_1 : 18:00","openTime_1 : 07:00, closeTime_1 : 12:00",Closed,-,"ContactName_1 : Concrete Sales,  JobPosition_1 : -,  EmailAddress_1 : -,  PhoneNumber1_1 : 0345 600 6464
ContactName_2 : Concrete Account Orders,  JobPosition_2 : -,  EmailAddress_2 : -,  PhoneNumber1_2 : 0345 155 6053
ContactName_3 : Mortar Screed Sales,  JobPosition_3 : -,  EmailAddress_3 : -,  PhoneNumber1_3 : 0345 155 1811",14.23211638,50.77490592,TRUE,"Betonárna CE 50,1 m s hodinovým výkonem 40 m čerstvého betonu je vybavena zařízením pro ohřev záměsové vody pro zimní období. Automatický, počítačem řízený provoz je zajištěn celoročně. Nabízíme špičkovou kvalitu anhydritových litých potěrů Anhylevel, Anhylevel Heat, Anhylevel Extranivel, cementových litých potěrů CemLevel, konstrukčních betonů, samozhutnitelných betonů Compacton, drátkobetonů, vláknobetonů a písku či štěrku. Dále poskytujeme autodopravu mixem, pumpování (čerpání) betonu. Naše betonárna se nachází v Děčíně a do 20 km od ní se nachází například Libverda, Benešov nad Ploučnicí, Malšovice či Markvartice. Cemex usiluje o udržitelnou výstavbu pomocí produktů řady Vertua.",Concrete,-,,-,,-,-,Ústecký kraj,FALSE
,"Betonárna Valašské Meziříčí, Cemex Czech Republic, s.r.o.",Hranická,Zlínský kraj,Valašské Meziříčí 1,Czech Republic,757 01, 602 520 071,"openTime_1 : 07:30, closeTime_1 : 17:30","openTime_1 : 07:30, closeTime_1 : 17:30","openTime_1 : 07:30, closeTime_1 : 17:30","openTime_1 : 07:30, closeTime_1 : 17:30","openTime_1 : 07:30, closeTime_1 : 17:30","openTime_1 : 07:30, closeTime_1 : 12:30",Closed,-,"ContactName_1 : Shipping Office (North West),  JobPosition_1 : -,  EmailAddress_1 : -,  PhoneNumber1_1 : 0345 155 9265
ContactName_2 : Concrete Sales,  JobPosition_2 : -,  EmailAddress_2 : -,  PhoneNumber1_2 : 0345 600 6464
ContactName_3 : Concrete Account Orders,  JobPosition_3 : -,  EmailAddress_3 : -,  PhoneNumber1_3 : 0345 155 9265
ContactName_4 : Screed Sales Only Order,  JobPosition_4 : -,  EmailAddress_4 : -,  PhoneNumber1_4 : 0345 155 9265",17.95517172,49.4884675,TRUE,"Betonárna Stetter H1.0 s hodinovým výkonem 50 m čerstvého betonu je vybavena moderní technologií a celoročně zajišťuje automatický, počítačem řízený provoz. Nachází se v Valašském Meziříčí a její služby jsou dostupné i v okolních městech jako jsou Lešná, Choryně, Kladeruby, Rožnov pod Radhoštěm, či Hustopeče. Nabízíme špičkovou kvalitu anhydritových litých potěrů Anhylevel, Anhylevel Heat, Anhylevel Extranivel, cementových litých potěrů CemLevel, konstrukční betony, samozhutnitelné betony Compacton, drátkobetony, vláknobetony, písek a štěrk. Kromě toho poskytujeme autodopravu mixem, pumpování a čerpání betonu. Cemex se zavazuje k udržitelné výstavbě pomocí produktů řady Vertua. Spočítejte si u nás objem betonu a získejte cenovou nabídku!",Concrete,-,,-,,-,-,Zlínský kraj,FALSE
,"Betonárna Ústí nad Labem, Cemex Czech Republic, s.r.o.",Drážďanská 74,Ústecký kraj,Ústí nad Labem,Czech Republic,400 07, 602 614 209,"openTime_1 : 06:00, closeTime_1 : 14:30","openTime_1 : 06:00, closeTime_1 : 14:30","openTime_1 : 06:00, closeTime_1 : 14:30","openTime_1 : 06:00, closeTime_1 : 14:30","openTime_1 : 06:00, closeTime_1 : 14:30","openTime_1 : 06:00, closeTime_1 : 09:30",Closed,-,"ContactName_1 : Tel,  JobPosition_1 : -,  EmailAddress_1 : -,  PhoneNumber1_1 : 01732 884740",14.0717223,50.6644952,TRUE,"Betonárna CE 50 s hodinovým výkonem 40 m čerstvého betonu se nachází v Ústí nad Labem. Je vybavena zařízením pro ohřev záměsové vody a recyklačním zařízením pro zpracování zbytkového betonu. Nabízíme špičkovou kvalitu anhydritových litých potěrů Anhylevel, Anhylevel Heat, Anhylevel Extranivel, cementových litých potěrů CemLevel, konstrukčních betonů, samozhutnitelných betonů Compacton, drátkobetonů a vláknobetonů. Kromě toho prodáváme také písek a štěrk. Autodopravu mixem, pumpování (čerpání) betonu zajišťujeme po celém okolí, jako jsou Dobětice, Strekov, Nestěmice, Chuderov či například Povrly. Naše produkty řady Vertua podporují udržitelnost výstavby. Na stránkách si můžete spočítat objem betonu a získat nezávaznou cenovou nabídku.",Concrete,-,,-,,-,-,Ústecký kraj,FALSE
,"Betonárna Ohrazenice Cemex Czech Republic, s.r.o.",Ohrazenice 270,Liberecký kraj,Semily,Czech Republic,511 01, 602 464 270,"openTime_1 : 06:00, closeTime_1 : 14:30","openTime_1 : 06:00, closeTime_1 : 14:30","openTime_1 : 06:00, closeTime_1 : 14:30","openTime_1 : 06:00, closeTime_1 : 14:30","openTime_1 : 06:00, closeTime_1 : 14:30","openTime_1 : 06:00, closeTime_1 : 21:30",Closed,-,"ContactName_1 : Asphalt Sales,  JobPosition_1 : -,  EmailAddress_1 : -,  PhoneNumber1_1 : 07557 319996
ContactName_2 : Plant,  JobPosition_2 : -,  EmailAddress_2 : -,  PhoneNumber1_2 : 01908 647 878
ContactName_3 : Orders,  JobPosition_3 : -,  EmailAddress_3 : -,  PhoneNumber1_3 : 0345 155 0930",15.11756016,50.5979251,TRUE,"Betonárna CE 50,1 m s hodinovým výkonem 40 m čerstvého betonu se nachází v Semilech. Je vybavena zařízením pro ohřev záměsové vody a má celoroční automatický, počítačem řízený provoz. Nabízíme špičkovou kvalitu anhydritových litých potěrů Anhylevel, Anhylevel Heat, Anhylevel Extranivel, cementových litých potěrů CemLevel, konstrukčních betonů, samozhutnitelných betonů Compacton, drátkobetonů, vláknobetonů, písku a štěrku. Dále poskytujeme autodopravu mixem, pumpování a čerpání betonu. Naše betonárna je ideálním partnerem pro stavební projekty v okolí Horní Sytové, Záhoří, Víchové nad Jizerou, Svijanského Újezdu, Račiněvsi a dalších měst v okruhu do zhruba 20 km. Na našich stránkách si můžete spočítat objem betonu a získat cenovou nabídku.",Concrete,-,,-,,-,-,Liberecký kraj,FALSE
,"Betonárna Hradec Králové - Správčice, Cemex Czech Republic, s.r.o.",Jana Černého,Královéhradecký kraj,Hradec Králové,Czech Republic,503 02, 606 627 647,"openTime_1 : 07:00, closeTime_1 : 17:00","openTime_1 : 07:00, closeTime_1 : 17:00","openTime_1 : 07:00, closeTime_1 : 17:00","openTime_1 : 07:00, closeTime_1 : 17:00","openTime_1 : 07:00, closeTime_1 : 17:00","openTime_1 : 07:00, closeTime_1 : 12:00",Closed,-,"ContactName_1 : Concrete Sales,  JobPosition_1 : -,  EmailAddress_1 : -,  PhoneNumber1_1 : 0345 600 6464
ContactName_2 : Concrete Account Orders,  JobPosition_2 : -,  EmailAddress_2 : -,  PhoneNumber1_2 : 01908 370259",15.8342464,50.2560269,TRUE,"Betonárna CE 55 s mísícím jádrem o objemu 1 m a hodinovým výkonem 37 m čerstvého betonu je vybavena zařízením pro ohřev záměsové vody a recyklačním zařízením pro zpracování zbytkového betonu. Automatický, počítačem řízený provoz je zajištěn celoročně. Betonárna se nachází v Předměřicích nad Labem a její služby jsou dostupné i v okolních městech jako jsou Všestary, Smiřice či Stěžery. Nabízíme špičkovou kvalitu produktů jako anhydritové lité potěry Anhylevel, cementové lité potěry CemLevel, konstrukční betony, samozhutnitelné betony Compacton, drátkobetony, vláknobetony, písek a štěrk. Dále nabízíme autodopravu mixem, pumpování (čerpání) betonu. Cemex usiluje o udržitelnou výstavbu pomocí produktů řady Vertua.",Concrete,-,,-,,-,-,Královéhradecký kraj,FALSE
,"Betonárna Plzeň - Prior, Cemex Czech Republic, s.r.o.",Jateční 301,Plzeňský kraj,Plzeň,Czech Republic,301 62, 777 365 540,"openTime_1 : 07:00, closeTime_1 : 17:00","openTime_1 : 07:00, closeTime_1 : 17:00","openTime_1 : 07:00, closeTime_1 : 17:00","openTime_1 : 07:00, closeTime_1 : 17:00","openTime_1 : 07:30, closeTime_1 : 17:00","openTime_1 : 07:00, closeTime_1 : 12:00",Closed,-,"ContactName_1 : Concrete Sales,  JobPosition_1 : -,  EmailAddress_1 : -,  PhoneNumber1_1 : 01274 299 556
ContactName_2 : Concrete Account Orders,  JobPosition_2 : -,  EmailAddress_2 : -,  PhoneNumber1_2 : 0345 155 6053
ContactName_3 : Mortar Screed Sales,  JobPosition_3 : -,  EmailAddress_3 : -,  PhoneNumber1_3 : 01788 462016",13.40451226,49.76809681,TRUE,"Betonárna CE 50,1 m s hodinovým výkonem 40 m čerstvého betonu se nachází v Plzni. Je vybavena zařízením pro ohřev záměsové vody a předehřev kameniva. Celoroční automatický, počítačem řízený provoz zajišťuje špičkovou kvalitu betonu. Betonárna je vybavena i recyklačním zařízením pro zpracování zbytkového betonu. Nabízíme špičkové kvality anhydritové lité potěry Anhylevel, Anhylevel Heat, Anhylevel Extranivel, Cementové lité potěry, jako CemLevel, konstrukční betony, samozhutnitelné betony Compacton, drátkobetony, vláknobetony a písek či štěrk. Autodopravu mixem, pumpování a čerpání betonu. Dovezem beton i do okolí jako Třemošná, Chrást, Dýšina, Bolevec či Doubravka. Dbáme na udržitelnost s produkty řady Vertua.",Concrete,-,,-,,-,-,Plzeňský kraj,FALSE
,"Betonárna Sokolov, Cemex Czech Republic, s.r.o.",Dobrovského 530,Karlovarský kraj,Dolní Rychnov,Czech Republic,356 04, 724 024 492,"openTime_1 : 07:30, closeTime_1 : 17:00","openTime_1 : 07:30, closeTime_1 : 17:00","openTime_1 : 07:30, closeTime_1 : 17:00","openTime_1 : 07:30, closeTime_1 : 17:00","openTime_1 : 07:30, closeTime_1 : 17:00","openTime_1 : 07:00, closeTime_1 : 11:00",Closed,-,"ContactName_1 : Concrete Sales,  JobPosition_1 : -,  EmailAddress_1 : -,  PhoneNumber1_1 : 0345 600 6464
ContactName_2 : Concrete Account Orders,  JobPosition_2 : -,  EmailAddress_2 : -,  PhoneNumber1_2 : 01179 37 1189
ContactName_3 : Mortar Screed Sales,  JobPosition_3 : -,  EmailAddress_3 : -,  PhoneNumber1_3 : 0345 147 9172",12.64627,50.16668,TRUE,"Betonárna CE 50 s hodinovým výkonem 40 m čerstvého betonu se nachází v Dolním Rychnově. Nabízíme špičkovou kvalitu anhydritových litých potěrů Anhylevel, Anhylevel Heat, Anhylevel Extranivel, cementových litých potěrů CemLevel, konstrukčních betonů, samozhutnitelných betonů Compacton, drátkobetonů a vláknobetonů. Kromě toho prodáváme také písek a štěrk. Naše betonárna dokáže zajistit autodopravu mixem, pumpování a čerpání betonu. Udržitelnost výstavby je pro nás důležitá, proto nabízíme produkty řady Vertua. Naše betonárna dokáže dovézt čerstvý beton do okolních měst jako jsou Sokolov, Kynšperk, či CHKO Slavkovský les. Vyberte si z naší široké nabídky produktů a nechte si dovézt čerstvý beton přímo k Vám.",Concrete,-,,-,,-,-,Karlovarský kraj,FALSE
,"Štěrkovna Dobřín, Cemex Czech Republic, s.r.o.",Dobříň 191,Ústecký kraj,Dobříň,Czech Republic,413 01, 416 809 000,"openTime_1 : 07:30, closeTime_1 : 17:00","openTime_1 : 07:30, closeTime_1 : 17:00","openTime_1 : 07:30, closeTime_1 : 17:00","openTime_1 : 07:30, closeTime_1 : 17:00","openTime_1 : 07:30, closeTime_1 : 17:00","openTime_1 : 07:00, closeTime_1 : 11:00",Closed,-,"ContactName_1 : Concrete Sales,  JobPosition_1 : -,  EmailAddress_1 : -,  PhoneNumber1_1 : 0345 600 6464
ContactName_2 : Concrete Account Orders,  JobPosition_2 : -,  EmailAddress_2 : -,  PhoneNumber1_2 : 01277 212 563
ContactName_3 : Mortar Screed Sales,  JobPosition_3 : -,  EmailAddress_3 : -,  PhoneNumber1_3 : 0345 147 9172",14.31071708,50.44520053,TRUE,"Pískovna Dobříň nabízí širokou škálu kameniva pro stavební účely ve frakcích 0/2, 0/4, 4/8, 8/16, 11/22, 16/32, 0/63Z, 0/4 Sport (speciální písky do dětských hřišť a sportoviště, certifikovaný materiál s atestem), 4/8, 8/16, 16/32, 0/32, 32/63 (drcené lomové kamenivo) a velkoobjemové vaky systému Big Bag (v objemu 1,5t např.: kamenivo pro ploché střechy). <br>Pískovna Dobříň nabízí smluvní přepravce, kteří mohou dovézt kamenivo do Štětí, Lovosice, Krabčice, Radouň, Roudnice nad Labem a jejich okolí. Prodloužení výdejní doby je možné na základě povolení obchodního zástupce. Prodej písku frakce 0/2 a 0/4 je z důvodu kapacity skladu a ukončení těžby pozastaven.",Aggregates,-,,-,,-,-,Ústecký kraj,FALSE
,"Betonárna Beroun, Cemex Czech Republic, s.r.o.",Na Ratince 203,Středočeský kraj,Beroun,Czech Republic,266 01, 602 260 821,"openTime_1 : 07:00, closeTime_1 : 17:00","openTime_1 : 07:00, closeTime_1 : 17:00","openTime_1 : 07:00, closeTime_1 : 17:00","openTime_1 : 07:00, closeTime_1 : 17:00","openTime_1 : 07:00, closeTime_1 : 17:00",Closed,Closed,-,"ContactName_1 : Concrete Sales,  JobPosition_1 : -,  EmailAddress_1 : -,  PhoneNumber1_1 : 0345 600 6464
ContactName_2 : Concrete Account Orders,  JobPosition_2 : -,  EmailAddress_2 : -,  PhoneNumber1_2 : 01784 485 348
ContactName_3 : Mortar Screed Sales,  JobPosition_3 : -,  EmailAddress_3 : -,  PhoneNumber1_3 : 0345 147 9172
ContactName_4 : Aggregate Asphalt Sales,  JobPosition_4 : -,  EmailAddress_4 : -,  PhoneNumber1_4 : 0345 155 2410
ContactName_5 : Tel,  JobPosition_5 : -,  EmailAddress_5 : -,  PhoneNumber1_5 : 01189 732487",14.07943244,49.95565215,TRUE,"Cemex je moderní betonárna s hodinovým výkonem 60 m čerstvého betonu. Betonárna je vybavena automatickým počítačem řízeným provozem a zařízením pro ohřev záměsové vody a předehřev kameniva. Nabízíme špičkovou kvalitu anhydritových litých potěrů Anhylevel, Anhylevel Heat, Anhylevel Extranivel, cementových litých potěrů CemLevel, konstrukční betony, samozhutnitelné betony Compacton, drátkobetony, vláknobetony a recyklační zařízení pro zpracování zbytkového betonu. Kromě toho prodáváme také písek a štěrk. Naše betonárna v Berouně nabízí autodopravu mixem, pumpování a čerpání betonu. Naše betonárna dokáže dovézt čerstvý beton i do okolních měst jako jsou Hlásná Třebaň, Loděnice, Bubovice, Chyňava či třeba Nižbor.",Concrete,-,,-,,-,-,Středočeský kraj,FALSE
,"Betonárna Kunovice, Cemex Czech Republic, s.r.o.",Osvobození 1127,Zlínský kraj,Kunovice,Czech Republic,686 04, 606 748 201,"openTime_1 : 07:00, closeTime_1 : 17:00","openTime_1 : 07:00, closeTime_1 : 17:00","openTime_1 : 07:00, closeTime_1 : 17:00","openTime_1 : 07:00, closeTime_1 : 17:00","openTime_1 : 07:30, closeTime_1 : 17:00","openTime_1 : 07:00, closeTime_1 : 12:00",Closed,-,"ContactName_1 : Tel,  JobPosition_1 : -,  EmailAddress_1 : -,  PhoneNumber1_1 : 0845 155 9251
ContactName_2 : Architectural Masonary,  JobPosition_2 : -,  EmailAddress_2 : -,  PhoneNumber1_2 : 0845 155 9251
ContactName_3 : Concrete Block Paving,  JobPosition_3 : -,  EmailAddress_3 : -,  PhoneNumber1_3 : 0845 155 9251",17.46992475,49.02775235,TRUE,"Betonárna Stetter H1.0 s hodinovým výkonem 50 m čerstvého betonu se nachází v Kunovicích. Nabízíme špičkovou kvalitu anhydritových litých potěrů Anhylevel, Anhylevel Heat, Anhylevel Extranivel, cementových litých potěrů CemLevel, konstrukční betony, samozhutnitelné betony Compacton, drátkobetony, vláknobetony, písek a štěrk. Kromě toho nabízíme autodopravu mixem, pumpování a čerpání betonu. Naše betonárna v Kunovicích je vybavena moderní technologií a poskytuje celoroční automatický, počítačem řízený provoz. Kromě Kunovic se naše betonárna dostane i do okolních měst jako jsou Uherské Hradiště, Luhačovice, Veselí nad Moravou, Uherský Brod či Spytihněv. Nabízíme špičkovou kvalitu produktů řady Vertua, které usilují o udržitelnou výstavbu.",Concrete,-,,-,,-,-,Zlínský kraj,FALSE
,"Štěrkovna Dolní Lutyně, Cemex Czech Republic, s.r.o.",Na Vrchách 1181,Moravskoslezský kraj,Dolní Lutyně,Czech Republic,735 53, 725 530 413,"openTime_1 : 06:00, closeTime_1 : 16:30","openTime_1 : 06:00, closeTime_1 : 16:30","openTime_1 : 06:00, closeTime_1 : 16:30","openTime_1 : 06:00, closeTime_1 : 16:30","openTime_1 : 06:00, closeTime_1 : 16:30",Closed,Closed,-,"ContactName_1 : Tel,  JobPosition_1 : -,  EmailAddress_1 : -,  PhoneNumber1_1 : 0845 155 9252
ContactName_2 : Concrete Block Paving,  JobPosition_2 : -,  EmailAddress_2 : -,  PhoneNumber1_2 : 0845 155 9252",18.42396454,49.90896464,TRUE,"Štěrkovna Dolní Lutyně nabízí kamenivo, písek a drcené kamenivo. Nabízíme širokou škálu frakcí, včetně jemného a praného písku - frakce 0/1P, lomového kamene, stěrkopísku a zahradního kameniva. ES prohlášení o shodě o vhodnosti použití do betonu, nestmelených a stmelených směsí hydraulickými pojivy pro inženýrské stavby a pozemní komunikace a pro malty. Naše kamenivo je vhodné pro nejrůznější stavební účely, včetně zásypu drenáže, dětských hřišť, plážového volejbalu, fotbalových a golfových hřišť nebo do koňských jízdáren. Nabízíme také služby smluvního přepravce a naši obchodní zástupci jsou vždy připraveni pomoci s výběrem vhodného produktu. Kamenivo dovezem do měst jako Rychvald, Doubrava, Ostrava město a Dolní Lutyně a jejich okolí.",Aggregates,-,,-,,-,-,Moravskoslezský kraj,FALSE
,"Betonárna Liberec, Cemex Czech Republic, s.r.o.",Londýnská 460,Liberecký kraj,Liberec,Czech Republic,460 11, 602 663 414,"openTime_1 : 08:00, closeTime_1 : 17:00","openTime_1 : 08:00, closeTime_1 : 17:00","openTime_1 : 08:00, closeTime_1 : 17:00","openTime_1 : 08:00, closeTime_1 : 17:00","openTime_1 : 08:00, closeTime_1 : 17:00","openTime_1 : 08:00, closeTime_1 : 12:00",Closed,-,"ContactName_1 : Concrete Sales,  JobPosition_1 : -,  EmailAddress_1 : -,  PhoneNumber1_1 : 0345 600 6464
ContactName_2 : Concrete Account Orders,  JobPosition_2 : -,  EmailAddress_2 : -,  PhoneNumber1_2 : 01784 485 348
ContactName_3 : Mortar Screed Sales,  JobPosition_3 : -,  EmailAddress_3 : -,  PhoneNumber1_3 : 0345 147 9172",15.03219076,50.77819728,TRUE,"Betonárna TEKA 1,25 m s hodinovým výkonem 40 m čerstvého betonu se nachází v Libereckém kraji. Je vybavena zařízením pro ohřev záměsové vody a má celoroční automatický, počítačem řízený provoz. Nabízíme špičkovou kvalitu anhydritových litých potěrů Anhylevel, Anhylevel Heat, Anhylevel Extranivel, cementových litých potěrů CemLevel, konstrukčních betonů, samozhutnitelných betonů Compacton, drátkobetonů, vláknobetonů a písku či štěrku. Dále nabízíme autodopravu mixem, pumpování a čerpání betonu. Naše betonárna dodá kvalitní čertvý beton například pro zákazníky z Liberce, Jablonce nad Nisou, Janova nad Nisou, Bedřichova,Jeřmanic, Hamrštejna či Chrastavy. Cemex také dbá na udržitlenost portfoliem produktů Vertua.",Concrete,-,,-,,-,-,Liberecký kraj,FALSE
,"Betonárna Teplice, Cemex Czech Republic, s.r.o.",Na Pastvinách,Ústecký kraj,Teplice-Teplice,Czech Republic,415 01, 602 463 008,"openTime_1 : 07:00, closeTime_1 : 17:00","openTime_1 : 07:00, closeTime_1 : 17:00","openTime_1 : 07:00, closeTime_1 : 17:00","openTime_1 : 07:00, closeTime_1 : 17:00","openTime_1 : 07:00, closeTime_1 : 17:00",Closed,Closed,-,"ContactName_1 : Tel,  JobPosition_1 : -,  EmailAddress_1 : -,  PhoneNumber1_1 : 0845 155 9253",13.80597418,50.65006997,TRUE,"Betonárna TEKA 1,5 m s hodinovým výkonem 45 m čerstvého betonu je vybavena moderními technologiemi pro automatický, počítačem řízený provoz. Zařízení pro ohřev záměsové vody a předehřev kameniva zajišťují, že betonárna funguje i v zimním období. Kromě toho je vybavena i recyklačním zařízením pro zpracování zbytkového betonu. Betonárna se nachází ve městě Teplice a její služby jsou dostupné i v okolních městech, jako jsou Osek, Duchcov, Bílina, Krupka, či Chlumec. Nabízíme špičkovou kvalitu produktů, jako anhydritové lité potěry, cementové lité potěry, konstrukční betony, samozhutnitelné betony drátkobetony, vláknobetony, písek a štěrk. Dále nabízíme autodopravu mixem, pumpování (čerpání) betonu.",Concrete,-,,-,,-,-,Ústecký kraj,FALSE
,"Betonárna Nové Strašecí, Cemex Czech Republic, s.r.o.",Jiřího Šotky 1198,Středočeský kraj,Nové Strašecí,Czech Republic,271 01, 725 546 962,"openTime_1 : 06:00, closeTime_1 : 16:15","openTime_1 : 06:00, closeTime_1 : 16:15","openTime_1 : 06:00, closeTime_1 : 16:15","openTime_1 : 06:00, closeTime_1 : 16:15","openTime_1 : 06:00, closeTime_1 : 16:15",Closed,Closed,-,"ContactName_1 : Tel,  JobPosition_1 : -,  EmailAddress_1 : -,  PhoneNumber1_1 : 0845 155 9252
ContactName_2 : Concrete Block Paving,  JobPosition_2 : -,  EmailAddress_2 : -,  PhoneNumber1_2 : 0845 155 9252",13.9165417,50.1581524,TRUE,"Betonárna Stasis RTM 750S s hodinovým výkonem 25 m čerstvého betonu je situována v Novém Strašecí. Nabízíme špičkovou kvalitu anhydritových litých potěrů Anhylevel, Anhylevel Heat, Anhylevel Extranivel, cementových litých potěrů CemLevel, konstrukční betony, samozhutnitelné betony Compacton, drátkobetony, vláknobetony, písek a štěrk. Kromě toho nabízíme autodopravu mixem, pumpování (čerpání) betonu. Společnost Cemex se také zasazuje o udržitelnou výstavbu pomocí produktů řady Vertua. Díky naší autodopravě můžeme dovézt čerstvý beton do okolních měst jako jsou Beroun, Kladno, Rakovník, Hořovice, či například Zdice. Na našich stránkách si také můžete spočítat objem betonu a získat nezávaznou cenovou nabídku.",Concrete,-,,-,,-,-,Středočeský kraj,FALSE
,"Betonárna České Budějovice, Cemex Czech Republic, s.r.o.",Rudolfovská třída 170,Jihočeský kraj,České Budějovice,Czech Republic,370 01, 607 942 588,"openTime_1 : 06:00, closeTime_1 : 19:00","openTime_1 : 06:00, closeTime_1 : 19:00","openTime_1 : 06:00, closeTime_1 : 19:00","openTime_1 : 06:00, closeTime_1 : 19:00","openTime_1 : 06:00, closeTime_1 : 19:00","openTime_1 : 06:00, closeTime_1 : 12:00",Closed,-,"ContactName_1 : Concrete Sales,  JobPosition_1 : -,  EmailAddress_1 : -,  PhoneNumber1_1 : 0345 600 6464
ContactName_2 : Concrete Account Orders,  JobPosition_2 : -,  EmailAddress_2 : -,  PhoneNumber1_2 : 01982 553 386
ContactName_3 : Mortar Screed Sales,  JobPosition_3 : -,  EmailAddress_3 : -,  PhoneNumber1_3 : 0345 147 9172",14.5169636,48.9846107,TRUE,"Betonárna CE 50,1 m s hodinovým výkonem 40 m čerstvého betonu se nachází v Českých Budějovicích. Je vybavena zařízením pro ohřev záměsové vody a předehřev kameniva. Betonárna je vybavena i recyklačním zařízením pro zpracování zbytkového betonu. Nabízíme špičkovou kvalitu anhydritových litých potěrů Anhylevel, Anhylevel Heat, Anhylevel Extranivel, cementových litých potěrů CemLevel, konstrukční betony, samozhutnitelné betony Compacton, drátkobetony, vláknobetony, písek a štěrk. Dále nabízíme autodopravu mixem, pumpování a čerpání betonu. Betonárna Cemex usiluje o udržitelnou výstavbu pomocí produktů řady Vertua. Dovážíme čerstvý beton do okolních měst jako jsou Hluboká nad Vltavou, Boršov, Borovany, Borek či například Hrdějovice.",Concrete,-,,-,,-,-,Jihočeský kraj,FALSE
,Cementová Mlýnice Dětmarovice,Dětmarovice 1216,Moravskoslezský kraj,Dětmarovice,Czech Republic,735 71, 596 539 516,"openTime_1 : 06:00, closeTime_1 : 17:30","openTime_1 : 06:00, closeTime_1 : 17:30","openTime_1 : 06:00, closeTime_1 : 17:30","openTime_1 : 06:00, closeTime_1 : 17:30","openTime_1 : 06:00, closeTime_1 : 17:30",Closed,Closed,-,"ContactName_1 : Tel,  JobPosition_1 : -,  EmailAddress_1 : -,  PhoneNumber1_1 : 0845 155 9251
ContactName_2 : Concrete Block Paving,  JobPosition_2 : -,  EmailAddress_2 : -,  PhoneNumber1_2 : 0845 155 9252",18.4609515,49.9084524,TRUE,"Cementová mlýnice v Dětmarovicích. Nabízíme expedici volně loženého cementu. V současnosti je Cemex v České republice jedním z předních poskytovatelů integrovaných stavebních řešení provozující více než 60 betonáren, cementárnu, cementovou mlýnici a výrobnu speciálních přísad do betonu. Společnost Cemex dbá na udržitelnější výstavbu prostřednictvím produktů Vertua.",Cement,-,,-,,-,-,Moravskoslezský kraj,FALSE
,"Betonárna Praha - Malešice, Cemex Czech Republic, s.r.o.",Teplárenská 11,Hlavní město Praha,Praha,Czech Republic,108 00, 602 663 414,"openTime_1 : 07:00, closeTime_1 : 18:00","openTime_1 : 07:00, closeTime_1 : 18:00","openTime_1 : 07:00, closeTime_1 : 18:00","openTime_1 : 07:00, closeTime_1 : 18:00","openTime_1 : 07:00, closeTime_1 : 18:00","openTime_1 : 07:00, closeTime_1 : 12:00",Closed,-,"ContactName_1 : Concrete Sales,  JobPosition_1 : -,  EmailAddress_1 : -,  PhoneNumber1_1 : 0345 600 6464
ContactName_2 : Concrete Account Orders,  JobPosition_2 : -,  EmailAddress_2 : -,  PhoneNumber1_2 : 0845 155 9215
ContactName_3 : Mortar Screed Sales,  JobPosition_3 : -,  EmailAddress_3 : -,  PhoneNumber1_3 : 0345 147 9172",14.53549751,50.08680554,TRUE,"Betonárna BHS 2,25 + Lieherr RIM 1,0 D m s hodinovým výkonem 100 m + 40 m čerstvého betonu je vybavena zařízením pro ohřev záměsové vody a předehřev kameniva. Celoroční automatický, počítačem řízený provoz zajišťuje precizní a spolehlivou výrobu betonu. Betonárna je vybavena i recyklačním zařízením pro zpracování zbytkového betonu. Naše betonárna se nachází v Pražských Malešicích a její služby jsou dostupné i v okolních oblastech, jako jsou Šestajovice, Újezd nad Lesy, Dolní Měcholupy, Hostavice či Klánovice. Nabízíme špičkovou kvalitu produktů jako jsou anhydritové lité potěry, Cementové lité potěry, konstrukční betony, samozhutnitelné betony, drátkobetony, vláknobetony, písek a štěrk. Dále nabízíme autodopravu mixem a čerpání betonu.",Concrete,-,,-,,-,-,Hlavní město Praha,FALSE
,"Betonárna Mladá Boleslav - Dukelská, Cemex Czech Republic, s.r.o.",Dukelská,Mladá Boleslav-Mladá Boleslav III,Mlada Boleslav,Czech Republic,293 01, 602 252 489,"openTime_1 : 07:00, closeTime_1 : 16:30","openTime_1 : 07:00, closeTime_1 : 16:30","openTime_1 : 07:00, closeTime_1 : 16:30","openTime_1 : 07:00, closeTime_1 : 16:30","openTime_1 : 07:00, closeTime_1 : 16:30","openTime_1 : 07:00, closeTime_1 : 12:00",Closed,-,"ContactName_1 : Concrete Sales,  JobPosition_1 : -,  EmailAddress_1 : -,  PhoneNumber1_1 : 0345 600 6464
ContactName_2 : Concrete Account Orders,  JobPosition_2 : -,  EmailAddress_2 : -,  PhoneNumber1_2 : 01223 420 648
ContactName_3 : Mortar Screed Sales,  JobPosition_3 : -,  EmailAddress_3 : -,  PhoneNumber1_3 : 0345 147 9172
ContactName_4 : Aggregate Asphalt Sales,  JobPosition_4 : -,  EmailAddress_4 : -,  PhoneNumber1_4 : 0345 155 9208",14.93129455,50.4139285,TRUE,"Betonárna SB 55 s hodinovým výkonem 56 m čerstvého betonu je vybavena zařízením pro ohřev záměsové vody a je schopna zajistit celoroční automatický, počítačem řízený provoz. Betonárka se nachází v Mladé Boleslavi a její služby jsou dostupné i v okolních městech jako jsou Bakov nad Jizerou, Nepřevázka, Kosmonosy, Straky či například Dobrovice. Nabízíme špičkovou kvalitu anhydritových litých potěrů Anhylevel, Anhylevel Heat, Anhylevel Extranivel, cementových litých potěrů CemLevel, konstrukčních betonů, samozhutnitelných betonů Compacton, drátkobetonů, vláknobetonů, písku a štěrku. Kromě toho poskytujeme autodopravu mixem, pumpování a čerpání betonu. Cemex se také zabývá udržitelností výstavby pomocí produktů řady Vertua.",Concrete,-,,-,,-,-,Mladá Boleslav-Mladá Boleslav III,FALSE
,"Betonárna Olomouc, Cemex Czech Republic, s.r.o.",Balcárkova 35,Olomoucký kraj,Olomouc-Olomouc,Czech Republic,779 00, 606 724 480,"openTime_1 : 07:00, closeTime_1 : 16:00","openTime_1 : 07:00, closeTime_1 : 16:00","openTime_1 : 07:00, closeTime_1 : 16:00","openTime_1 : 07:00, closeTime_1 : 16:00","openTime_1 : 07:00, closeTime_1 : 16:00",Closed,Closed,-,"ContactName_1 : Aggregate Asphalt Sales,  JobPosition_1 : Manager,  EmailAddress_1 : -,  PhoneNumber1_1 : 0345 155 2410
ContactName_2 : Tel,  JobPosition_2 : Manager,  EmailAddress_2 : -,  PhoneNumber1_2 : 02920 498616",17.21593081,49.57890387,TRUE,"Betonárna Stetter H 1.0 s mísícím jádrem o objemu 1 m a hodinovým výkonem 37 m čerstvého betonu. Automatický, počítačem řízený provoz, vybavený zařízením pro ohřev záměsové vody. Recyklační zařízení pro zpracování zbytkového betonu. Betonárna Cemex se nachází v Olomouci a její služby jsou dostupné i v okolních městech jako jsou Prostějov, Přerov, Šternberk, Lipník nad Bečvou, či Litovel. Nabízíme špičkovou kvalitu anhydritových litých potěrů Anhylevel, Anhylevel Heat, Anhylevel Extranivel,cementových litých potěrů CemLevel, konstrukční betony, samozhutnitelné betony Compacton, drátkobetony, vláknobetony, písek a štěrk. Autodopravu mixem, pumpování a čerpání betonu. Podporujeme udržitelnou výstavbu pomocí produktů řady Vertua.",Concrete,-,,-,,-,-,Olomoucký kraj,FALSE
,"Štěrkovna Dětmarovice, Cemex Czech Republic, s.r.o.",Dolní Lutyně 1234,Moravskoslezský kraj,Dolní Lutyně,Czech Republic,735 71, 725 530 416,"openTime_1 : 07:30, closeTime_1 : 17:30","openTime_1 : 07:30, closeTime_1 : 17:30","openTime_1 : 07:30, closeTime_1 : 17:30","openTime_1 : 07:30, closeTime_1 : 17:30","openTime_1 : 07:30, closeTime_1 : 17:30","openTime_1 : 07:00, closeTime_1 : 12:00",Closed,-,"ContactName_1 : Concrete Sales,  JobPosition_1 : -,  EmailAddress_1 : -,  PhoneNumber1_1 : 0345 600 6464
ContactName_2 : Concrete Account Orders,  JobPosition_2 : -,  EmailAddress_2 : -,  PhoneNumber1_2 : 01283 702 581
ContactName_3 : Mortar Screed Sales,  JobPosition_3 : -,  EmailAddress_3 : -,  PhoneNumber1_3 : 0345 147 9172",18.4548917,49.9076838,TRUE,"Nabízíme štěrk frakce 4/8, 8/16, 16/22, 16/32 a štěrkopísek 0/4. Všechny naše produkty mají ES prohlášení o shodě o vhodnosti použití do betonu, asfaltových směsí, nestmelených a stmelených směsí hydraulickými pojivy a u jemných frakcí i do malt. Frakce 0/4 a 4/8 navíc získali hygienický certifikát. Dále provozovna nabízí míchané frakce 0/16 a 0/22. Naše kamenivo lze použít pro nejrůznější stavební účely, jako je například zásyp drenáže, dětská hřiště, zahradní kamenivo a další. Po předchozí domluvě je možnost přípravy naplnění BigBagů. Můžeme také nabídnout smluvní přepravce a dovezeme kamenivo do těchto měst: Dolní Lutyně, Bohumín, Orlová, Karviná, Dětmarovice a jejich okolí. Obraťte se prosím na našeho obchodního zástupce.",Aggregates,-,,-,,-,-,Moravskoslezský kraj,FALSE
,"Lom Družec, Cemex Czech Republic, s.r.o. | Dočasně uzavřeno",Žilina,Středočeský kraj,Družec,Czech Republic,273 62, 725 546 961,"openTime_1 : 07:30, closeTime_1 : 17:00","openTime_1 : 07:30, closeTime_1 : 17:00","openTime_1 : 07:30, closeTime_1 : 17:00","openTime_1 : 07:30, closeTime_1 : 17:00","openTime_1 : 07:30, closeTime_1 : 17:00","openTime_1 : 07:00, closeTime_1 : 11:00",Closed,-,"ContactName_1 : Concrete Sales,  JobPosition_1 : -,  EmailAddress_1 : -,  PhoneNumber1_1 : 0345 600 6464
ContactName_2 : Concrete Account Orders,  JobPosition_2 : -,  EmailAddress_2 : -,  PhoneNumber1_2 : 01179 37 1127
ContactName_3 : Mortar Screed Sales,  JobPosition_3 : -,  EmailAddress_3 : -,  PhoneNumber1_3 : 0345 147 9172",14.02177739,50.09719576,TRUE,"Kamenolom Družec nabízí prodej drceného kameniva, písku a dalších stavebních materiálů. Nabízíme drcené kamenivo ve frakcích 0/32, 0/63, 32/63, 0/125, 63/125, 63/250, 0/300 a lomový kámen záhozový. Hornina Spilit je ideální pro nejrůznější stavební účely, jako je zásyp drenáže, dětská hřiště, zahradní kamenivo a další.<br><br>Kamenolom Družec je schopen zajistit přepravu kameniva do Kladna, Unhoště, Lán a Družce a jejich okolí. Nabízíme smluvní přepravce, kteří zajistí bezpečnou a rychlou přepravu.<br><br>Pokud hledáte kvalitní kamenivo, písek nebo jiné stavební materiály, obraťte se na naše obchodní zástupce.",Aggregates,-,,-,,-,-,Středočeský kraj,FALSE
,"Štěrkovna Zaječí, Cemex Czech Republic, s.r.o.",Štěrkovna,South Moravian Region,Zaječí,Czech Republic,691 05, 725 530 414,"openTime_1 : 07:00, closeTime_1 : 17:00","openTime_1 : 07:00, closeTime_1 : 17:00","openTime_1 : 07:00, closeTime_1 : 17:00","openTime_1 : 07:00, closeTime_1 : 17:00","openTime_1 : 07:30, closeTime_1 : 17:00","openTime_1 : 07:00, closeTime_1 : 12:00",Closed,-,"ContactName_1 : Shipping Office (North West),  JobPosition_1 : -,  EmailAddress_1 : -,  PhoneNumber1_1 : 0345 155 9265
ContactName_2 : Concrete Sales,  JobPosition_2 : -,  EmailAddress_2 : -,  PhoneNumber1_2 : 0345 600 6464
ContactName_3 : Concrete Account Orders,  JobPosition_3 : -,  EmailAddress_3 : -,  PhoneNumber1_3 : 0345 155 9265
ContactName_4 : Screed Sales,  JobPosition_4 : -,  EmailAddress_4 : -,  PhoneNumber1_4 : 0345 155 9265",16.7513055,48.8529052,TRUE,"Štěrkovna Zaječí nabízí přírodní těžené kamenivo ve frakcích 0/4, 0/2, 0/2V, 4/8, 0/16, 8/16, 0/125Z, 16/63 a dalších. Naše kamenivo je ideální pro stavební účely, jako je například zásyp drenáže, dětská hřiště, zahradní kameny, písek a lomový kámen. Naše kamenivo je také vhodné pro prodej písku a drceného kameniva. <br><br>Můžeme nabídnout smluvní přepravce, kteří dovezou kamenivo do měst Rakvice, Mikulov, Podivín, Hustopeče a Zaječí a jejich okolí. Pokud hledáte kvalitní kamenivo pro vaše stavební projekty, obraťte se na naše obchodní zástupce, kteří vám rádi poradí a pomohou vám s výběrem vhodného kameniva.",Concrete,-,,-,,-,-,South Moravian Region,FALSE
,"Betonárna Zlín, Cemex Czech Republic, s.r.o.",K Farmě 606,Zlínský kraj,Zlín-Zlín,Czech Republic,763 14, 608 464 603,"openTime_1 : 07:00, closeTime_1 : 19:00","openTime_1 : 07:00, closeTime_1 : 19:00","openTime_1 : 07:00, closeTime_1 : 19:00","openTime_1 : 07:00, closeTime_1 : 19:00","openTime_1 : 07:00, closeTime_1 : 19:00",Closed,Closed,-,"ContactName_1 : Tel,  JobPosition_1 : -,  EmailAddress_1 : -,  PhoneNumber1_1 : 01788517000",17.7329268,49.2673829,TRUE,"Betonárna H1 STETTER s hodinovým výkonem 58 m betonu nabízí špičkovou kvalitu betonu pro stavební projekty v okolí Zlína, Štípy, Kroměříže, Uherského Hradiště, Vsetína a Holešova. Celoroční plnoautomatický provoz zajišťuje rychlé dodání čerstvého betonu. Součástí betonárny je i recyklační zařízení pro zpracování zbytkového betonu. Nabízíme širokou škálu produktů, včetně anhydritových litých potěrů Anhylevel, Anhylevel Heat, Anhylevel Extranivel, cementových litých potěrů CemLevel, konstrukčních betonů, samozhutnitelných betonů Compacton, drátkobetonů, vláknobetonů, písku a štěrku. Kromě toho nabízíme autodopravu mixem, pumpování a čerpání betonu. Cemex usiluje o udržitelnou výstavbu pomocí produktů řady Vertua.",Concrete,-,,-,,-,-,Zlínský kraj,FALSE
,"Štěrkovna Hodonice, Cemex Czech Republic, s.r.o.",okres Znojmo,Jihomoravský kraj,Hodonice,Czech Republic,67125, 725 530 411,"openTime_1 : 07:00, closeTime_1 : 16:00","openTime_1 : 07:00, closeTime_1 : 16:00","openTime_1 : 07:00, closeTime_1 : 16:00","openTime_1 : 07:00, closeTime_1 : 16:00","openTime_1 : 07:00, closeTime_1 : 16:00","openTime_1 : 07:00, closeTime_1 : 10:30",Closed,-,"ContactName_1 : Aggregate Asphalt Sales,  JobPosition_1 : -,  EmailAddress_1 : -,  PhoneNumber1_1 : 0345 155 2410
ContactName_2 : Tel,  JobPosition_2 : -,  EmailAddress_2 : -,  PhoneNumber1_2 : 01179 382245",16.18449045,48.83153899,TRUE,"Štěrkovna Hodonice nabízí širokou škálu kameniva pro nejrůznější stavební účely. Nabízíme prodej kameniva, písku, drceného kameniva, lomového kamene, stěrkopísku a zahradního kameniva. Naše kamenivo je dostupné ve frakcích 0/4, 0/8, 0/16, 16/32, 0/2, 0/32 Z, 4/22, 22/63, 63/125.<br><br>Kromě toho můžeme nabídnout i smluvní přepravce, kteří dovezou kamenivo do Znojma, Božic, Strachotic a okolí. Pokud hledáte kvalitní kamenivo pro vaši stavbu, nebo zahradu, obraťte se na našeho obchodního zástupce, který vám rád poradí.",Aggregates,-,,-,,-,-,Jihomoravský kraj,FALSE
,"Betonárna Slaný, Cemex Czech Republic, s.r.o.",Byseň 1,Středočeský kraj,Tuřany u Slaného,Czech Republic,273 79, 608 149 438,"openTime_1 : 07:00, closeTime_1 : 17:00","openTime_1 : 07:00, closeTime_1 : 17:00","openTime_1 : 07:00, closeTime_1 : 17:00","openTime_1 : 07:00, closeTime_1 : 17:00","openTime_1 : 07:00, closeTime_1 : 17:00","openTime_1 : 07:00, closeTime_1 : 10:00",Closed,-,"ContactName_1 : Concrete Sales,  JobPosition_1 : -,  EmailAddress_1 : -,  PhoneNumber1_1 : 01977 216 990
ContactName_2 : Concrete Accounts,  JobPosition_2 : -,  EmailAddress_2 : -,  PhoneNumber1_2 : 0345 155 6053
ContactName_3 : Mortar & Screed Sales,  JobPosition_3 : -,  EmailAddress_3 : -,  PhoneNumber1_3 : 01788 462 016",14.03521,50.23669,TRUE,"Betonárna SICOMA MAO s hodinovým výkonem 45 m3 čerstvého betonu se nachází v Tuřanech. Nabízíme špičkovou kvalitu anhydritových litých potěrů Anhylevel, Anhylevel Heat, Anhylevel Extranivel, cementových litých potěrů CemLevel, konstrukčních betonů, samozhutnitelných betonů Compacton, drátkobetonů, vláknobetonů a písku či štěrku. Kromě toho poskytujeme autodopravu mixem, pumpování a čerpání betonu. Naše služby jsou k dispozici v okolí Tuřan, včetně měst jako jsou Třebíz, Slaný, Malíkovice, Smečno, Svinařov, Zlonice či Libušín.Na našich stránkách si můžete spočítat objem betonu a získat nezávaznou cenovou nabídku. Cemex také dbá na udržitelnost výstavby produkty řady Vertua.",Concrete,-,,-,,-,-,Středočeský kraj,FALSE
,"Betonárna Strančice, Cemex Czech Republic, s.r.o.",Svojšovice 27,Středočeský kraj,Strančice,Czech Republic,251 63, 602 556 591,"openTime_1 : 08:00, closeTime_1 : 16:30","openTime_1 : 08:00, closeTime_1 : 16:30","openTime_1 : 08:00, closeTime_1 : 16:30","openTime_1 : 08:00, closeTime_1 : 16:30","openTime_1 : 08:00, closeTime_1 : 16:30","openTime_1 : 08:00, closeTime_1 : 16:30",Closed,-,"ContactName_1 : Concrete Sales,  JobPosition_1 : -,  EmailAddress_1 : -,  PhoneNumber1_1 : 0345 600 6464
ContactName_2 : Concrete Account Orders,  JobPosition_2 : -,  EmailAddress_2 : -,  PhoneNumber1_2 : 0117 937 1194
ContactName_3 : Mortar Screed Sales,  JobPosition_3 : -,  EmailAddress_3 : -,  PhoneNumber1_3 : 0345 147 9172",14.66272945,49.95437412,TRUE,"Betonárna Schwing Stetter H1 - RS 1,0 m s hodinovým výkonem 40 m čerstvého betonu je situována ve Strančicích. Nabízíme špičkovou kvalitu anhydritových litých potěrů Anhylevel, Anhylevel Heat, Anhylevel Extranivel, cementových litých potěrů CemLevel, konstrukční betony, samozhutnitelné betony Compacton, drátkobetony, vláknobetony, písek a štěrk. Naše autodoprava mixem, pumpování a čerpání betonu je k dispozici pro oblasti jako Strančice, Vestec, Mnichovice, Čestlice, Říčany, či Velké Popovice.  Na našish stránkách si můžete spočítat objem betonu a získat nezávaznou cenovou nabídku. Cemex podporuje udržitelnost výstavby pomocí produktů řady Vertua.",Concrete,-,,-,,-,-,Středočeský kraj,FALSE
,"Betonárna Frýdek-Místek, Cemex Czech Republic, s.r.o.",Na Zbytkách 83,Moravskoslezský kraj,Staré Město,Czech Republic,738 01, 775 443 963,"openTime_1 : 07:00, closeTime_1 : 19:00","openTime_1 : 07:00, closeTime_1 : 19:00","openTime_1 : 07:00, closeTime_1 : 19:00","openTime_1 : 07:00, closeTime_1 : 19:00","openTime_1 : 07:00, closeTime_1 : 19:00","openTime_1 : 07:00, closeTime_1 : 12:00",Closed,-,"ContactName_1 : Tel,  JobPosition_1 : -,  EmailAddress_1 : -,  PhoneNumber1_1 : 023 8072 0200",18.3755361,49.6537293,TRUE,"Betonárna MERKO V 1.25 s mísícím jádrem o objemu 1,5 m a hodinovým výkonem 55 m čerstvého betonu. Automatický, počítačem řízený provoz, vybavený zařízením pro ohřev záměsové vody. Recyklační zařízení pro zpracování zbytkového betonu. Betonárka typu MERKO V 1.25 se nachází ve Frýdku-Místku a do 20 km od ní dovezeme čerstvý beton. Obsluhujeme tak například Žabeň, Paskov, Dobrá, Staré Město, Brušperk a další. Nabízíme špičkovou kvalitu anhydritových litých potěrů Anhylevel, Anhylevel Heat, Anhylevel Extranivel, cementových litých potěrů CemLevel, konstrukční betony, samozhutnitelné betony Compacton, drátkobetony, vláknobetony, písek a štěrk. Cemex také dbá na udržitelnost pomocí produktů řady Vertua.",Concrete,-,,-,,-,-,Moravskoslezský kraj,FALSE
,"Betonárna Šumperk Vikýřovice, Cemex Czech Republic, s.r.o.",Rapotínská,Olomoucký kraj,Vikýřovice,Czech Republic,788 13, 606 748 205,"openTime_1 : 06:30, closeTime_1 : 17:30","openTime_1 : 06:30, closeTime_1 : 17:30","openTime_1 : 06:30, closeTime_1 : 17:30","openTime_1 : 06:30, closeTime_1 : 17:30","openTime_1 : 06:30, closeTime_1 : 17:30","openTime_1 : 07:00, closeTime_1 : 12:00",Closed,-,"ContactName_1 : Concrete Sales,  JobPosition_1 : -,  EmailAddress_1 : -,  PhoneNumber1_1 : 0345 600 6464
ContactName_2 : Concrete Account Orders,  JobPosition_2 : -,  EmailAddress_2 : -,  PhoneNumber1_2 : 0345 155 6053
ContactName_3 : Mortar Screed Sales,  JobPosition_3 : -,  EmailAddress_3 : -,  PhoneNumber1_3 : 01788 462 016",16.99691557,49.97271854,TRUE,"Betonárna Cemex se nachází ve Vikýřovicích a nabízí špičkovou kvalitu betonu. Naše betonárna typu Stetter H1.0 s míchacím zařízením RTM 1500 a objemem mísícího jádra 1,0 m s hodinovým výkonem 38 m čerstvého betonu je vybavena zařízením pro ohřev záměsové vody a recyklačním zařízením pro zpracování zbytkového betonu. Nabízíme širokou škálu produktů, včetně anhydritových litých potěrů Anhylevel, Anhylevel Heat, Anhylevel Extranivel, cementových litých potěrů CemLevel, konstrukčních betonů, samozhutnitelných betonů Compacton, drátkobetonů a vláknobetonů. Nabízíme také písek a štěrk. Nabízíme také autodopravu mixem a čerpání betonu. Beton dovezeme i do okolí jako je Maršov u Úpice, Proseč, Radvanice, Rovensko pod Troskami či Pecka.",Concrete,-,,-,,-,-,Olomoucký kraj,FALSE
,"Betonárna Mělník, Cemex Czech Republic, s.r.o.",Nůšařská,Středočeský kraj,Mělník-Mělník,Czech Republic,276 01, 602 770 982,"openTime_1 : 07:00, closeTime_1 : 17:00","openTime_1 : 07:00, closeTime_1 : 17:00","openTime_1 : 07:00, closeTime_1 : 17:00","openTime_1 : 07:00, closeTime_1 : 17:00","openTime_1 : 07:00, closeTime_1 : 17:00",Closed,Closed,-,"ContactName_1 : Call:,  JobPosition_1 : -,  EmailAddress_1 : -,  PhoneNumber1_1 : 01634 240411",14.46560751,50.35957873,TRUE,"Betonárna HBS 1,5 T (1,5 m) s hodinovým výkonem 65 m čerstvého betonu je vybavena moderními technologiemi pro automatický, počítačem řízený provoz. Zařízení pro ohřev záměsové vody a předehřev kameniva zajišťují, že betonárna funguje i v zimním období. Kromě toho je vybavena i recyklačním zařízením pro zpracování zbytkového betonu. Betonárna se nachází na Mělníku a její služby jsou dostupné i v okolí jako v Cítově, Neratovicích, Štětí, či Kokořínsku. Nabízíme vysoce kvalitní anhydritové lité potěry, cementové lité potěry, konstrukční betony, samozhutnitelné betony, drátkobetony, vláknobetony, písek a štěrk. Nabízíme autodopravu mixem, pumpování (čerpání) betonu. Usilujeme o udržitelnou výstavbu pomocí produkty řady Vertua.",Concrete,-,,-,,-,-,Středočeský kraj,FALSE
,"Štěrkovna Náklo, Cemex Czech Republic, s.r.o.",Okres Olomouc,Olomoucký kraj,Náklo,Czech Republic,78332, 725 530 412,"openTime_1 : 07:00, closeTime_1 : 17:00","openTime_1 : 07:00, closeTime_1 : 17:00","openTime_1 : 07:00, closeTime_1 : 17:00","openTime_1 : 07:00, closeTime_1 : 17:00","openTime_1 : 07:00, closeTime_1 : 17:00","openTime_1 : 07:00, closeTime_1 : 10:00",Closed,-,"ContactName_1 : Aggregate Asphalt Sales,  JobPosition_1 : -,  EmailAddress_1 : -,  PhoneNumber1_1 : 0345 155 9208
ContactName_2 : Tel,  JobPosition_2 : -,  EmailAddress_2 : -,  PhoneNumber1_2 : 01675 465 911",17.12939399,49.65423213,TRUE,"Štěrkovna Náklo, nabízí prodej kameniva, písku, drceného kameniva, lomového kamene, stěrkopísku a zahradního kameniva. Nabízíme přírodní těžené kamenivo ve frakcích 0/4, 4/8, 8/16, 11/22, 0/1 Z, 0/2, 0/16, 22/63, 22/63 ZK, okrasný zahradní kámen a netříděné suroviny. Naše kamenivo je vhodné pro nejrůznější stavební účely, jako je například zásyp drenáže, dětská hřiště, sportoviště, jako plážový volejbal, fotbalová hřiště, golfová hřiště a další, ale i například do koňských jízdáren. Navíc můžeme nabídnout i frakce 0/4 a 4/8 ze štěrkovny Dolní Lutyně, která získala hygienický certifikát. Můžeme nabídnout smluvní přepravce a dovážíme kamenivo do měst Litovel, Olomouc, Příkazy a jejich okolí. Neváhejte se obrátit na naše obchodní zástupce.",Aggregates,-,,-,,-,-,Olomoucký kraj,FALSE
,"Betonárna Benešov, Cemex Czech Republic, s.r.o.",Černoleská,Central Bohemian Region,Benešov,Czech Republic,256 01, 606 642 845,"openTime_1 : 08:00, closeTime_1 : 17:00","openTime_1 : 08:00, closeTime_1 : 17:00","openTime_1 : 08:00, closeTime_1 : 17:00","openTime_1 : 08:00, closeTime_1 : 17:00","openTime_1 : 08:00, closeTime_1 : 17:00","openTime_1 : 08:00, closeTime_1 : 12:00",Closed,-,"ContactName_1 : Concrete Sales,  JobPosition_1 : -,  EmailAddress_1 : -,  PhoneNumber1_1 : 0345 600 6464
ContactName_2 : Concrete Account Orders,  JobPosition_2 : -,  EmailAddress_2 : -,  PhoneNumber1_2 : 0845 155 9215
ContactName_3 : Mortar Screed Sales,  JobPosition_3 : -,  EmailAddress_3 : -,  PhoneNumber1_3 : 0345 147 9172",14.69205189,49.76791258,TRUE,"Betonárna BHS 2,0 s hodinovým výkonem 90 m čerstvého betonu se nachází v Benešově. Je vybavena zařízením pro ohřev záměsové vody a předehřev kameniva. Betonárna je vybavena i recyklačním zařízením pro zpracování zbytkového betonu. Celoroční automatický, počítačem řízený provoz zajišťuje špičkovou kvalitu betonu. Nabízíme produkty jako Anhydritové lité potěry Anhylevel, Anhylevel Heat, Anhylevel Extranivel, Cementové lité potěry, CemLevel, konstrukční betony, samozhutnitelné betony Compacton, drátkobetony, vláknobetony, písek a štěrk. Dopravu mixem, pumpování a čerpání betonu zajišťujeme po celém okolí Benešova, včetně Bystřice, Neveklova, Týnce nad Sázavou či Bukovan. Produkty řady Vertua podporujeme udržitelnou výstavbu.",Concrete,-,,-,,-,-,Central Bohemian Region,FALSE
,"Betonárna Šenov, Cemex Czech Republic, s.r.o.",Těšínská 880,Moravskoslezský kraj,Šenov-Šenov u Ostravy,Czech Republic,739 34, 602 700 071,"openTime_1 : 07:00, closeTime_1 : 17:00","openTime_1 : 07:00, closeTime_1 : 17:00","openTime_1 : 07:00, closeTime_1 : 17:00","openTime_1 : 07:00, closeTime_1 : 17:00","openTime_1 : 07:30, closeTime_1 : 17:00","openTime_1 : 07:00, closeTime_1 : 12:00",Closed,-,"ContactName_1 : Concrete Sales,  JobPosition_1 : -,  EmailAddress_1 : -,  PhoneNumber1_1 : 0345 600 6464
ContactName_2 : Concrete Account Orders,  JobPosition_2 : -,  EmailAddress_2 : -,  PhoneNumber1_2 : 01784 485 348
ContactName_3 : Mortar Screed Sales,  JobPosition_3 : -,  EmailAddress_3 : -,  PhoneNumber1_3 : 0345 147 9172",18.3983792,49.7908481,TRUE,"Betonárna STETTER M2-T2 s objemem mísícího jádra 2 m a hodinovým výkonem 60 m čerstvého betonu. Automatický, počítačem řízený provoz po celý rok. Zařízení pro ohřev záměsové vody pro zimní období. Recyklační zařízení pro zpracování zbytkového betonu. Betonárna se nachází v Ostravě-Šenově a doveze čerstvý beton i do okolí jako do Havířova, Radvanovic, Bartonic, Laz, či Václavovic. Nabízíme špičkovou kvalitu anhydritových litých potěrů Anhylevel, Anhylevel Heat, Anhylevel Extranivel, cementových litých potěrů CemLevel, konstrukční betony, samozhutnitelné betony Compacton, drátkobetony, vláknobetony, písek a štěrk. Dále nabízíme autodopravu mixem, pumpování a čerpání betonu. Cemex usiluje o udržitelnou výstavbu pomocí produktů řady Vertua.",Concrete,-,,-,,-,-,Moravskoslezský kraj,FALSE
,"Betonárna Plzeň - Letkov, Cemex Czech Republic, s.r.o.",Božkov,Plzeňský kraj,Plzeň 26,Czech Republic,315 03, 602 477 342,"openTime_1 : 07:00, closeTime_1 : 17:00","openTime_1 : 07:00, closeTime_1 : 17:00","openTime_1 : 07:00, closeTime_1 : 17:00","openTime_1 : 07:00, closeTime_1 : 17:00","openTime_1 : 07:00, closeTime_1 : 17:00","openTime_1 : 07:00, closeTime_1 : 12:00",Closed,-,"ContactName_1 : Concrete Sales,  JobPosition_1 : -,  EmailAddress_1 : -,  PhoneNumber1_1 : 0345 600 6464
ContactName_2 : Concrete Account Orders,  JobPosition_2 : -,  EmailAddress_2 : -,  PhoneNumber1_2 : 0845 155 9229",13.4639485,49.7220206,TRUE,"Betonárna BHS 2 m s hodinovým výkonem 70 m čerstvého betonu je vybavena zařízením pro ohřev záměsové vody a předehřev kameniva. Celoroční automatický, počítačem řízený provoz zajišťuje špičkovou kvalitu betonu. Betonárna je vybavena i recyklačním zařízením pro zpracování zbytkového betonu. Naše betonárna v Plzni-Božkově nabízí špičkové produkty jako Anhydritové lité potěry Anhylevel, Cementové lité potěry CemLevel, konstrukční betony, samozhutnitelné betony Compacton, drátkobetony, vláknobetony, písek a štěrk. Dále nabízíme autodopravu mixem, pumpování a čerpání betonu. Naše betonárna je vhodná pro stavební projekty v okolí Plzně-Božkova, ale také v okolí dalších měst jako Letkov, Mokrouše, Starý Plzenec Rokycany, Kyšice či Cernice.",Concrete,-,,-,,-,-,Plzeňský kraj,FALSE
,"Štěrkovna Spytihněv, Cemex Czech Republic, s.r.o.",Spytihněv,Zlínský kraj,Spytihněv,Czech Republic,76364, 725 530 410,"openTime_1 : 07:30, closeTime_1 : 17:30","openTime_1 : 07:30, closeTime_1 : 17:30","openTime_1 : 07:30, closeTime_1 : 17:30","openTime_1 : 07:30, closeTime_1 : 17:30","openTime_1 : 07:30, closeTime_1 : 17:30","openTime_1 : 07:30, closeTime_1 : 12:30",Closed,-,"ContactName_1 : Tel,  JobPosition_1 : -,  EmailAddress_1 : -,  PhoneNumber1_1 : 07392 121914",17.50978513,49.1331,TRUE,"Štěrkovna Syptihněv nabízí širokou škálu kameniva pro nejrůznější stavební účely. Nabízíme prodej kameniva, písku, drceného kameniva, lomového kamene, stěrkopísku a zahradního kameniva. Všechny frakce štěrku jsou dostupné v 0/4, 4/8, 8/16, 11/22. Písek 0/4 a 4/8 je ideální pro dětská hřiště. Kopaný písek 0/2 je dostupný v Big Bagu. Drcené frakce jsou dostupné v 4/8, 0/32, 0/63, 16/32. <br>Můžeme nabídnout smluvní přepravce a dovézt kamenivo do měst: Napajedla, Otrokovice, Uherské Hradiště a Spytihněv a jejich okolí. Pokud hledáte kvalitní kamenivo pro stavební účely, zásyp drenáže, dětská hřiště nebo zahradu, obraťte se na našeho obchodního zástupce.",Aggregates,-,,-,,-,-,Zlínský kraj,FALSE
,"Betonárna Čáslav, Cemex Czech Republic, s.r.o.",Chrudimská,Středočeský kraj,Čáslav,Czech Republic,286 01, 602 202 690,"openTime_1 : 07:00, closeTime_1 : 18:00","openTime_1 : 07:00, closeTime_1 : 18:00","openTime_1 : 07:00, closeTime_1 : 18:00","openTime_1 : 07:00, closeTime_1 : 18:00","openTime_1 : 07:00, closeTime_1 : 18:00","openTime_1 : 07:00, closeTime_1 : 12:00",Closed,-,"ContactName_1 : Tel,  JobPosition_1 : -,  EmailAddress_1 : -,  PhoneNumber1_1 : 0800 353 433
ContactName_2 : Bulk Cement,  JobPosition_2 : -,  EmailAddress_2 : -,  PhoneNumber1_2 : 0800 353 433",15.40005235,49.91263692,TRUE,"Betonárna STETTER 1 m s hodinovým výkonem 50 m čerstvého betonu je vybavena zařízením pro ohřev záměsové vody a kameniva, což umožňuje celoroční automatický, počítačem řízený provoz. Kromě toho nabízíme i recyklační zařízení pro zpracování zbytkového betonu. Naše betonárna se nachází v Čáslavi a její služby jsou dostupné i v okolních městech jako jsou Kutná Hora, Drobovice, Močovice, Církvice či Chotusice. Nabízíme špičkovou kvalitu produktů jako jsou anhydritové lité potěry Anhylevel, cementové lité potěry, CemLevel, konstrukční betony, samozhutnitelné betony Compacton, drátkobetony, vláknobetony, písek a štěrk. Dále nabízíme autodopravu mixem, pumpování a čerpání betonu. Cemex usiluje o udržitelnou výstavbu pomocí produktů řady Vertua.",Concrete,-,,-,,-,-,Středočeský kraj,FALSE
,"Betonárna Velké Meziříčí, Cemex Czech Republic, s.r.o.",Karlov 169,Kraj Vysočina,Velké Meziříčí,Czech Republic,594 01, 777 792 051,"openTime_1 : 07:00, closeTime_1 : 18:00","openTime_1 : 07:00, closeTime_1 : 18:00","openTime_1 : 07:00, closeTime_1 : 18:00","openTime_1 : 07:00, closeTime_1 : 18:00","openTime_1 : 07:00, closeTime_1 : 18:00","openTime_1 : 07:00, closeTime_1 : 12:00",Closed,-,"ContactName_1 : Concrete Sales,  JobPosition_1 : Manager,  EmailAddress_1 : -,  PhoneNumber1_1 : 0345 600 6464
ContactName_2 : Concrete Account Orders,  JobPosition_2 : Manager,  EmailAddress_2 : -,  PhoneNumber1_2 : 0845 155 9215
ContactName_3 : Mortar Screed Sales,  JobPosition_3 : Manager,  EmailAddress_3 : -,  PhoneNumber1_3 : 0345 147 9172",16.03112091,49.34688757,TRUE,"Betonárna Liebher 1.0 m3 s míchacím jádrem ARCEN MEV 1500 V2M v Velkém Meziříčí nabízí špičkovou kvalitu betonu s hodinovým výkonem 40 m. Je vybavena zařízením pro ohřev záměsové vody a kameniva, které zajišťuje celoroční automatický, počítačem řízený provoz. Betonárna je také vybavena recyklačním zařízením pro zpracování zbytkového betonu. Nabízíme špičkové produkty jako Anhydritové lité potěry Anhylevel, Anhylevel Heat, Anhylevel Extranivel, Cementové lité potěry, CemLevel, konstrukční betony, samozhutnitelné betony Compacton, drátkobetony, vláknobetony, písek a štěrk. Dopravíme beton do okolních měst jako Petráveč, Martinice, Jabloňov, Dolní Heřmanice či Křížanov. Využijte našich produktů řady Vertua pro udržitelnou výstavbu.",Concrete,-,,-,,-,-,Kraj Vysočina,FALSE
,"Betonárna Havlíčkův Brod, Cemex Czech Republic, s.r.o.",Lidická,Kraj Vysočina,Havlíčkův Brod-Havlíčkův Brod,Czech Republic,580 01, 728 823 767,"openTime_1 : 07:30, closeTime_1 : 16:30","openTime_1 : 07:30, closeTime_1 : 16:30","openTime_1 : 07:30, closeTime_1 : 16:30","openTime_1 : 07:30, closeTime_1 : 16:30","openTime_1 : 07:30, closeTime_1 : 16:30",Closed,Closed,-,"ContactName_1 : Telephone,  JobPosition_1 : -,  EmailAddress_1 : -,  PhoneNumber1_1 : 01753 598 590",15.58002913,49.59224823,TRUE,"Betonárna typ BHS 50 s hodinovým výkonem 50 m čerstvého betonu je vybavena zařízením pro ohřev záměsové vody a kameniva, předehřev kameniva a recyklační zařízení pro zpracování zbytkového betonu. Celoroční automatický, počítačem řízený provoz. Betonárna se nachází v Havlíčkově Brodě a je schopna dovézt čerstvý beton do okolních měst jako jsou Chotěboř, Ledeč nad Sázavou, Světlá nad Sázavou, Přibyslav či Humpolec. Nabízíme špičkovou kvalitu produktů jako jsou Anhydritové lité potěry Anhylevel, Anhylevel Heat, Anhylevel Extranivel, Cementové lité potěry, CemLevel, konstrukční betony, samozhutnitelné betony Compacton, drátkobetony, vláknobetony, písek a štěrk. Usilujeme o udržitelnou výstavbu pomocí produktů řady Vertua.",Concrete,-,,-,,-,-,Kraj Vysočina,FALSE
,"Lom Mítov, Cemex Czech Republic, s.r.o.",okres Plzeň-jih,Plzeňský kraj,Nové Mitrovice,Czech Republic,33563, 773 782 781,"openTime_1 : 07:00, closeTime_1 : 17:00","openTime_1 : 07:00, closeTime_1 : 17:00","openTime_1 : 07:00, closeTime_1 : 17:00","openTime_1 : 07:00, closeTime_1 : 17:00","openTime_1 : 07:00, closeTime_1 : 17:00","openTime_1 : 07:00, closeTime_1 : 12:00",Closed,-,"ContactName_1 : Aggregate Asphalt Sales,  JobPosition_1 : -,  EmailAddress_1 : -,  PhoneNumber1_1 : 0345 155 2410
ContactName_2 : Tel,  JobPosition_2 : -,  EmailAddress_2 : -,  PhoneNumber1_2 : 01797 321507",13.65760148,49.59238693,TRUE,"Kamenolom Mítov nabízí prodej drceného kameniva ve frakcích 0/4, 4/8, 8/16, 11/22, 16/32, 0/32, 0/32 ŠDa, 0/63, 32/63, 0/250, GAB 250 (kámen do gabionů), nestandard, odhlinění, LK - lomový kámen tříděný, LKZ - lomový kámen záhozový a zahradní kámen (velké okrasné kameny) hornina Spilit. <br><br>Kamenolom Mítov může zákazníkům nabídnout smluvní přepravce dle dostupné nosnosti: návěs, souprava, solo, osmikola, ostatní (dle dohody). Prodloužení výdejní doby je možné na základě povolení obchodního zástupce. Kamenolom Mítov dovezou kamenivo do měst Blovice, Nové Mitrovice, Spálené Poříčí a jejich okolí. Pokud hledáte kvalitní kamenivo pro své stavební účely, nebo na zahradu, obraťte se na obchodního zástupce.",Aggregates,-,,-,,-,-,Plzeňský kraj,FALSE
,"Betonárna Žďár nad Sázavou - Cemex Czech Republic, s.r.o.",Jihlavská 1007,Kraj Vysočina,Ždár nad Sázavou,Czech Republic,591 01, 777 792 045,"openTime_1 : 07:00, closeTime_1 : 16:00","openTime_1 : 07:00, closeTime_1 : 16:00","openTime_1 : 07:00, closeTime_1 : 16:00","openTime_1 : 07:00, closeTime_1 : 16:00","openTime_1 : 07:00, closeTime_1 : 16:00","openTime_1 : 07:00, closeTime_1 : 12:00",Closed,-,"ContactName_1 : Shipping Office (North West),  JobPosition_1 : -,  EmailAddress_1 : -,  PhoneNumber1_1 : 0345 155 9265
ContactName_2 : Concrete Sales,  JobPosition_2 : -,  EmailAddress_2 : -,  PhoneNumber1_2 : 0345 600 6464
ContactName_3 : Concrete Account Orders,  JobPosition_3 : -,  EmailAddress_3 : -,  PhoneNumber1_3 : 0345 155 9265
ContactName_4 : Screed Sales,  JobPosition_4 : -,  EmailAddress_4 : -,  PhoneNumber1_4 : 0345 155 9265",15.94988118,49.55362408,TRUE,"Betonárna Stetter M 1.0 m3 s míchacím jádrem Stetter T1000 s hodinovým výkonem 40 m čerstvého betonu. Automatický, počítačem řízený provoz celoročně. Zařízení pro ohřev záměsové vody a kameniva pro zimní období. Recyklační zařízení pro zpracování zbytkového betonu. Betonárna se nachází ve městě Ždár nad Sázavou a její služby jsou dostupné i v okolních městech jako jsou Polnička, Ostrov nad Oslavou, Nové Veselí, či Nové Město na Moravě. Nabízíme špičkovou kvalitu anhydritových litých potěrů Anhylevel, , cementových litých potěrů CemLevel, konstrukční betony, samozhutnitelné betony Compacton, drátkobetony, vláknobetony, písek a štěrk. Autodopravu mixem, pumpování (čerpání) betonu. Udržitelnou výstavbu pomocí produktů řady Vertua.",Concrete,-,,-,,-,-,Kraj Vysočina,FALSE
,"Betonárna Lovosice - Prosmyky, Cemex Czech Republic, s.r.o.",Prosmycká,Ústecký kraj,Lovosice,Czech Republic,410 02, 724 564 176,"openTime_1 : 07:00, closeTime_1 : 17:00","openTime_1 : 07:00, closeTime_1 : 17:00","openTime_1 : 07:00, closeTime_1 : 17:00","openTime_1 : 07:00, closeTime_1 : 17:00","openTime_1 : 07:30, closeTime_1 : 17:00","openTime_1 : 07:00, closeTime_1 : 12:00",Closed,-,"ContactName_1 : Concrete Sales,  JobPosition_1 : -,  EmailAddress_1 : -,  PhoneNumber1_1 : 01142 418220
ContactName_2 : Concrete Account Orders,  JobPosition_2 : -,  EmailAddress_2 : -,  PhoneNumber1_2 : 0345 155 6053
ContactName_3 : Mortar Screed Sales,  JobPosition_3 : -,  EmailAddress_3 : -,  PhoneNumber1_3 : 01788 462016",14.09191553,50.51594651,TRUE,"Betonárna Stetter 2,0 m s hodinovým výkonem 65 m čerstvého betonu je vybavena zařízením pro ohřev záměsové vody a předehřev kameniva. Celoroční automatický, počítačem řízený provoz zajišťuje špičkovou kvalitu betonu. Betonárna je vybavena i recyklačním zařízením pro zpracování zbytkového betonu. Nabízíme špičkové kvality anhydritové lité potěry Anhylevel, Anhylevel Heat, Anhylevel Extranivel, Cementové lité potěry, jako CemLevel, konstrukční betony, samozhutnitelné betony Compacton, drátkobetony, vláknobetony a písek či štěrk. Autodopravu mixem, pumpování a čerpání betonu. Betonárna Cemex se nachází v Lovosicích a Prosmycích a do 20 km okolí dokážeme přivézt čerstvý beton do měst jako jsou Litoměřice, Terezín, či Třebenice.",Concrete,-,,-,,-,-,Ústecký kraj,FALSE
,"Betonárna Stonava, Cemex Czech Republic, s.r.o.",areál NKZ,Moravskoslezský kraj,Stonava,Czech Republic,735 34, 606 748 204,"openTime_1 : 07:00, closeTime_1 : 18:00","openTime_1 : 07:00, closeTime_1 : 18:00","openTime_1 : 07:00, closeTime_1 : 18:00","openTime_1 : 07:00, closeTime_1 : 18:00","openTime_1 : 07:00, closeTime_1 : 18:00","openTime_1 : 07:00, closeTime_1 : 12:00",Closed,-,"ContactName_1 : Tel,  JobPosition_1 : -,  EmailAddress_1 : -,  PhoneNumber1_1 : 02085 925272
ContactName_2 : Aggregate Asphalt Sales,  JobPosition_2 : -,  EmailAddress_2 : -,  PhoneNumber1_2 : 0345 155 2410",18.548833,49.810995,TRUE,"Betonárna Stetter V 1.5 s mísícím jádrem o objemu 1,5 m a hodinovým výkonem 50 m čerstvého betonu. Automatický, počítačem řízený provoz po celý rok. Betonárna se nachází ve Stonavě a je schopna dovézt čerstvý beton do okolních obcí jako jsou Bohumín, Orlová, Karviná, Petrovice u Karviné či Dětmarovice. Nabízíme špičkovou kvalitu anhydritových litých potěrů Anhylevel, Anhylevel Heat, Anhylevel Extranivel, cementových litých potěrů CemLevel, konstrukční betony, samozhutnitelné betony Compacton, drátkobetony, vláknobetony, písek a štěrk. Naše betonárna usiluje o udržitelnou výstavbu pomocí produktů řady Vertua.",Concrete,-,,-,,-,-,Moravskoslezský kraj,FALSE
,"Betonárna Pardubice - Semtín, Cemex Czech Republic, s.r.o.",Semtín 102,Pardubický kraj,Pardubice,Czech Republic,533 54, 602 471 959,"openTime_1 : 07:30, closeTime_1 : 17:30","openTime_1 : 07:30, closeTime_1 : 17:30","openTime_1 : 07:30, closeTime_1 : 17:30","openTime_1 : 07:30, closeTime_1 : 17:30","openTime_1 : 07:30, closeTime_1 : 17:30","openTime_1 : 07:00, closeTime_1 : 12:00",Closed,-,"ContactName_1 : Concrete Sales,  JobPosition_1 : -,  EmailAddress_1 : -,  PhoneNumber1_1 : 0345 600 6464
ContactName_2 : Concrete Account Orders,  JobPosition_2 : -,  EmailAddress_2 : -,  PhoneNumber1_2 : 01332 665 779
ContactName_3 : Mortar Screed Sales,  JobPosition_3 : -,  EmailAddress_3 : -,  PhoneNumber1_3 : 0345 147 9172",15.737391,50.0549438,TRUE,"Betonárna Cemex se nachází v Pardubicích a je vybavena moderními technologiemi pro výrobu špičkové kvality betonu. Naše betonárna typu Stetter H2 věžová s válcovým 5-ti komorovým zásobníkem a šikmým pásem se spodními odběry je vybavena dvourotorovou míchačkou BHS 2,25 m s hodinovým výkonem 90 m čerstvého betonu. Celoroční automatický, počítačem řízený provoz je vybaven zařízením pro ohřev kameniva a záměsové vody. Nabízíme širokou škálu produktů, jako jsou anhydritové lité potěry, cementové lité potěry, konstrukční betony, samozhutnitelné betony, drátkobetony, vláknobetony, písek a štěrk. Nabízíme autodopravu mixem, pumpování (čerpání) betonu. Betonárna doveze čerstvý beton do okolních měst, jako Opatovice, Srch, Ráby, Sezemice a další.",Concrete,-,,-,,-,-,Pardubický kraj,FALSE
,"Betonárna Ostrava-Mariánské Hory, Cemex Czech Republic, s.r.o.",Mariánskohorská 92,Moravian-Silesian Region,Ostrava 2,Czech Republic,702 00, 596 539 520,"openTime_1 : 07:00, closeTime_1 : 17:00","openTime_1 : 07:00, closeTime_1 : 17:00","openTime_1 : 07:00, closeTime_1 : 17:00","openTime_1 : 07:00, closeTime_1 : 17:00","openTime_1 : 07:30, closeTime_1 : 17:00","openTime_1 : 07:00, closeTime_1 : 12:00",Closed,-,"ContactName_1 : Dry Silo Mortar,  JobPosition_1 : -,  EmailAddress_1 : -,  PhoneNumber1_1 : 01926 811133
ContactName_2 : Tel,  JobPosition_2 : -,  EmailAddress_2 : -,  PhoneNumber1_2 : 01298 72612
ContactName_3 : Aggregate Sales,  JobPosition_3 : -,  EmailAddress_3 : -,  PhoneNumber1_3 : 0345 155 7373
ContactName_4 : Asphalt Sales,  JobPosition_4 : -,  EmailAddress_4 : -,  PhoneNumber1_4 : 0345 155 6367",18.24950918,49.83892069,TRUE,"Betonárna Stetter V 1.5 s dvouhřídelovým mísícím jádrem o objemu 1.5 m a výrobním výkonem až 60 m/hod čerstvého betonu. Automatický, počítačem řízený provoz celoročně, vybavený zařízením pro ohřev záměsové vody pro zimní období. Betonárka nabízí špičkovou kvalitu produktů jako Anhydritové lité potěry Anhylevel, cementové lité potěry, CemLevel, konstrukční betony, samozhutnitelné betony Compacton, drátkobetony, vláknobetony, písek a štěrk. Kromě toho nabízíme autodopravu mixem, pumpování a čerpání betonu. Betonárna Cemex v Ostravě se zaměřuje na udržitelnou výstavbu pomocí produktů řady Vertua. Díky naší autodopravě můžeme dovážet čerstvý beton do okolních měst jako jsou Poruba, Klimkovice, Hlučín, či Ludgeřovice.",Concrete,-,,-,,-,-,Moravian-Silesian Region,FALSE
,"Betonárna Vlašim, Cemex Czech Republic, s.r.o.",Průmyslová 1888,Středočeský kraj,Vlašim,Czech Republic,258 01, 604 206 156,"openTime_1 : 07:00, closeTime_1 : 16:30","openTime_1 : 07:00, closeTime_1 : 16:30","openTime_1 : 07:00, closeTime_1 : 16:30","openTime_1 : 07:00, closeTime_1 : 16:30","openTime_1 : 07:00, closeTime_1 : 16:30","openTime_1 : 07:00, closeTime_1 : 11:00",Closed,-,"ContactName_1 : Tel,  JobPosition_1 : -,  EmailAddress_1 : -,  PhoneNumber1_1 : 0845 155 9208
ContactName_2 : Aggregate Sales,  JobPosition_2 : -,  EmailAddress_2 : -,  PhoneNumber1_2 : 0345 155 9208",14.9065806,49.6987439,TRUE,"Betonárna Stasis RTM 750S s hodinovým výkonem 25 m čerstvého betonu je vybavena zařízením pro ohřev záměsové vody a je schopna zajistit celoroční automatický, počítačem řízený provoz. Naše betonárna se nachází v blízkosti Vlašimi a je schopna dovézt špičkovou kvalitu betonu do okolních měst jako jsou Kladruby, Zdislavice, Kondrac, Louňovice, Veliš či Načeradec. Nabízíme širokou škálu produktů, včetně anhydritových litých potěrů Anhylevel, cementových litých potěrů CemLevel, konstrukčních betonů, samozhutnitelných betonů Compacton, drátkobetonů, vláknobetonů, písku a štěrku. Kromě toho nabízíme autodopravu mixem, pumpování a čerpání betonu. Naše produkty řady Vertua pomáhají udržovat udržitelnou výstavbu.",Concrete,-,,-,,-,-,Středočeský kraj,FALSE
,"Betonárna Hradec Králové - Slezské Předměstí, Cemex Czech Republic, s.r.o.",Bratří Štefanů 986,Královéhradecký kraj,Hradec Králové,Czech Republic,500 03, 606 642 843,"openTime_1 : 07:30, closeTime_1 : 17:30","openTime_1 : 07:30, closeTime_1 : 17:30","openTime_1 : 07:30, closeTime_1 : 17:30","openTime_1 : 07:30, closeTime_1 : 17:30","openTime_1 : 07:30, closeTime_1 : 17:30","openTime_1 : 07:30, closeTime_1 : 12:30",Closed,-,"ContactName_1 : Concrete Sales,  JobPosition_1 : -,  EmailAddress_1 : -,  PhoneNumber1_1 : 0345 600 6464
ContactName_2 : Concrete Account Orders,  JobPosition_2 : -,  EmailAddress_2 : -,  PhoneNumber1_2 : 0345 155 6053",15.8763787,50.2207358,TRUE,"Betonárna Stetter H2 s 5-ti komorovým zásobníkem, elevátorem a vibračním podavačem je vybavena dvourotorovou míchačkou BHS 2,0 m s výkonem 80 m čerstvého betonu. Automatický provoz je řízen počítačem a pro zimní období je zařízení vybaveno ohřevem kameniva a záměsové vody. Betonárna se nachází v Hradci Králové a její okolí, kde nabízíme špičkovou kvalitu anhydritových litých potěrů Anhylevel, Anhylevel Heat, Anhylevel Extranivel, cementových litých potěrů CemLevel, konstrukční betony, samozhutnitelné betony Compacton, drátkobetony, vláknobetony, písek a štěrk. Nabízíme autodopravu mixem, pumpování (čerpání) betonu. Dovezeme čerstvý beton i do okolních měst jako jsou Divec, Librantice, Skalice, Třebechovice pod Orebem či Běleč nad Orlicí.",Concrete,-,,-,,-,-,Královéhradecký kraj,FALSE
,"Betonárna Znojmo, Cemex Czech Republic, s.r.o.",Dobšická 17,Jihomoravský kraj,Znojmo,Czech Republic,671 82, 606 748 208,"openTime_1 : 07:15, closeTime_1 : 17:15","openTime_1 : 07:15, closeTime_1 : 17:15","openTime_1 : 07:15, closeTime_1 : 17:15","openTime_1 : 07:15, closeTime_1 : 17:15","openTime_1 : 07:15, closeTime_1 : 17:15","openTime_1 : 07:15, closeTime_1 : 12:15",Closed,-,"ContactName_1 : Concrete Sales,  JobPosition_1 : -,  EmailAddress_1 : -,  PhoneNumber1_1 : 0345 600 6464
ContactName_2 : Concrete Account Orders,  JobPosition_2 : -,  EmailAddress_2 : -,  PhoneNumber1_2 : 0191 378 7821
ContactName_3 : Mortar Screed Sales,  JobPosition_3 : -,  EmailAddress_3 : -,  PhoneNumber1_3 : 0345 155 1811",16.0774612,48.8522682,TRUE,"Betonárna Stetter H1.0 s hodinovým výkonem 50 m čerstvého betonu se nachází v Znojmě. Nabízíme špičkovou kvalitu anhydritových litých potěrů Anhylevel, Anhylevel Heat, Anhylevel Extranivel, cementových litých potěrů CemLevel, konstrukčních betonů, samozhutnitelných betonů Compacton, drátkobetonů a vláknobetonů. Kromě toho prodáváme také písek a štěrk. Naše betonárna poskytuje autodopravu mixem, pumpování a čerpání betonu. Cemex se zavazuje k udržitelné výstavbě pomocí produktů řady Vertua. Naše betonárna dokáže dovézt čerstvý beton do okolních měst jako jsou Chvalovice, Hodonice, Únanov, Kuchařovice, Suchohrdly, či Přímětice. Na našich stránkách si můžete spočítat objem betonu a získat nezávaznou cenovou nabídku.",Concrete,-,,-,,-,-,Jihomoravský kraj,FALSE
,"Štěrkovna Smiřice, Cemex Czech Republic, s.r.o.",Písníkovna,Královéhradecký kraj,Smiřice,Czech Republic,503 03, 725 733 383,"openTime_1 : 06:00, closeTime_1 : 14:30","openTime_1 : 06:00, closeTime_1 : 14:30","openTime_1 : 06:00, closeTime_1 : 14:30","openTime_1 : 06:00, closeTime_1 : 14:30","openTime_1 : 06:00, closeTime_1 : 14:30","openTime_1 : 06:00, closeTime_1 : 09:30","openTime_1 : 06:00, closeTime_1 : 09:30",-,"ContactName_1 : Asphalt Sales,  JobPosition_1 : -,  EmailAddress_1 : -,  PhoneNumber1_1 : 07469 028596
ContactName_2 : Asphalt Plant,  JobPosition_2 : -,  EmailAddress_2 : -,  PhoneNumber1_2 : 01513 556717
ContactName_3 : Concrete Sales,  JobPosition_3 : -,  EmailAddress_3 : -,  PhoneNumber1_3 : 0345 600 6464
ContactName_4 : Concrete Account Orders,  JobPosition_4 : -,  EmailAddress_4 : -,  PhoneNumber1_4 : 0845 155 9265",15.84642892,50.28612513,TRUE,"Štěrkovna Smiřice nabízí širokou škálu kameniva pro stavební účely. Můžete si u nás vybrat z frakcí 0/4, 4/8, 8/16, 11/22, 16/32 KLU, 22/63 MN, 32/63 odpadní, 0/32, 0/63, 0/4 M. Naše kamenivo lze použít pro nejrůznější stavební účely, jako je například zásyp drenáže, dětská hřiště, zahradní kamenivo, prodej písku, prodej drceného kameniva, lomového kamene, stěrkopísku a další. <br>Můžeme nabídnout smluvní přepravce a prodloužení výdejní doby je možné na základě povolení obchodního zástupce. Naše služby jsou k dispozici v městech Předměřice nad Labem, Černožice, Černilov, Hradec KrálovéSmiřice a jejich okolí. <br><br>Neváhejte se obrátit na našeho obchodního zástupce.",Aggregates,-,,-,,-,-,Královéhradecký kraj,FALSE
,"Betonárna Hodonín - Cemex Czech Republic, s.r.o.",Lužická,Jihomoravský kraj,Hodonín-Hodonín 1,Czech Republic,695 01, 606 748 202,"openTime_1 : 08:00, closeTime_1 : 17:00","openTime_1 : 08:00, closeTime_1 : 17:00","openTime_1 : 08:00, closeTime_1 : 17:00","openTime_1 : 08:00, closeTime_1 : 17:00","openTime_1 : 08:00, closeTime_1 : 17:00",Closed,Closed,-,"ContactName_1 : Concrete Sales,  JobPosition_1 : -,  EmailAddress_1 : -,  PhoneNumber1_1 : 0345 600 6464
ContactName_2 : Concrete Account Orders,  JobPosition_2 : -,  EmailAddress_2 : -,  PhoneNumber1_2 : 01323 416 683
ContactName_3 : Mortar Screed Sales,  JobPosition_3 : -,  EmailAddress_3 : -,  PhoneNumber1_3 : 0345 147 9172",17.0940144,48.844567,TRUE,"Betonárna Stasis H1.0 s hodinovým výkonem 50 m čerstvého betonu se nachází v Hodoníně. Nabízíme špičkovou kvalitu anhydritových litých potěrů Anhylevel, Anhylevel Heat, Anhylevel Extranivel, cementových litých potěrů CemLevel, konstrukční betony, samozhutnitelné betony Compacton, drátkobetony, vláknobetony, písek a štěrk. Kromě toho poskytujeme autodopravu mixem, pumpování a čerpání betonu. Naše betonárna je ideálním partnerem pro všechny projekty v okolí Hodonína, Uherského Hradiště, Uherského Brodu, Vlčnova, Kostelce u Uherského Hradiště a Starého Města. Na našich stránkách si můžete jednoduše spočítat objem betonu a poptat jeho cenu. Využijte našich produktů řady Vertua pro udržitelnou výstavbu.",Concrete,-,,-,,-,-,Jihomoravský kraj,FALSE
,"Betonárna Vrchlabí - Cemex Czech Republic, s.r.o.",Kunčice nad Labem,Královéhradecký kraj,Kunčice nad Labem,Czech Republic,543 61, 602 712 427,"openTime_1 : 07:00, closeTime_1 : 17:00","openTime_1 : 07:00, closeTime_1 : 17:00","openTime_1 : 07:00, closeTime_1 : 17:00","openTime_1 : 07:00, closeTime_1 : 17:00","openTime_1 : 07:00, closeTime_1 : 17:00",Closed,Closed,-,"ContactName_1 : Sales,  JobPosition_1 : -,  EmailAddress_1 : -,  PhoneNumber1_1 : 0345 322 7650",15.61284552,50.58749609,TRUE,"Betonárna STASIS DS25 s řadovým zásobníkem, vážícím pasem a šikmým podavacím pasem, míchacím jádrem RTM 750-0,5 m s hodinovým výkonem 20 m čerstvého betonu. Nabízíme špičkovou kvalitu anhydritových litých potěrů Anhylevel, Anhylevel Heat, Anhylevel Extranivel, cementových litých potěrů CemLevel, konstrukčních betonů, samozhutnitelných betonů Compacton, drátkobetonů, vláknobetonů a písku či štěrku. Autodoprava mixem, pumpování a čerpání betonu. Naše betonárna se nachází ve Vrchlabí a je otevřena celoročně s omezením a ohřevem záměsové vody a ASŘ. Máme recyklační zařízení Stetter RA10. Usilujeme o udržitelnou výstavbu pomocí produktů Vertua. Dovážíme čerstvý beton do okolních měst jako jsou Lánov, Kunčice, Dolní Branná či třeba Jílemnice.",Concrete,-,,-,,-,-,Královéhradecký kraj,FALSE
,"Lom Černětice , Cemex Czech Republic, s.r.o.",Černětice 1,Jihočeský kraj,Volyně,Czech Republic,387 01, 774 673 358,"openTime_1 : 07:00, closeTime_1 : 17:00","openTime_1 : 07:00, closeTime_1 : 17:00","openTime_1 : 07:00, closeTime_1 : 17:00","openTime_1 : 07:00, closeTime_1 : 17:00","openTime_1 : 07:30, closeTime_1 : 17:00","openTime_1 : 07:00, closeTime_1 : 12:00",Closed,-,"ContactName_1 : Concrete Sales,  JobPosition_1 : -,  EmailAddress_1 : -,  PhoneNumber1_1 : 01405 454 998
ContactName_2 : Concrete Account Orders,  JobPosition_2 : -,  EmailAddress_2 : -,  PhoneNumber1_2 : 0345 155 6053
ContactName_3 : Mortar Screed Sales,  JobPosition_3 : -,  EmailAddress_3 : -,  PhoneNumber1_3 : 01788 462016",13.89012373,49.13651234,TRUE,"Nabízí drcené i drážní kamenivo vyráběné na mobilní lince ve frakcích:<br>jemné frakce: 0/4, 0/16 drtě: 4/8, 8/16, 16/32<br>štěrkodrtě: 0/32 Šda, 0/63 Šda, 0/125, 0/250, 0/300<br>štěrk: 32/63, 63/125, 63/180<br>drážní štěrkodrť: 0/32 kv<br>drážní štěrk:<br>32/63 BI<br>LK - lomový kámen netříděný<br>Na lomu je možná ukládka materiálu.<br>hornina RULA<br>Zajištujeme dodání kameniva do stavby nákladní dopravou dle dostupné nosnosti: návěs, souprava, solo, osmikola, ostatní (dle dohody). Prodloužení výdejní doby je možné po dohodě s vedoucím závodu.",Aggregates,-,,-,,-,-,Jihočeský kraj,FALSE
,"Betonárna Chomutov, Cemex Czech Republic, s.r.o.",Ctiorova,Ústecký kraj,Chomutov,Czech Republic,43003, 602 278 649,"openTime_1 : 07:00, closeTime_1 : 16:30","openTime_1 : 07:00, closeTime_1 : 16:30","openTime_1 : 07:00, closeTime_1 : 16:30","openTime_1 : 07:00, closeTime_1 : 16:30","openTime_1 : 07:00, closeTime_1 : 16:30",Closed,Closed,-,"ContactName_1 : Aggregate Asphalt Sales,  JobPosition_1 : -,  EmailAddress_1 : -,  PhoneNumber1_1 : 0345 155 7373
ContactName_2 : Tel,  JobPosition_2 : -,  EmailAddress_2 : -,  PhoneNumber1_2 : 01606 883012",13.4327779,50.4571285,TRUE,"Betonárna Stetter-BHS-2 s hodinovým výkonem 70 m čerstvého betonu a čerpadlem Schwing Stetter 1x34 (délka výložníku 34 metrů) je vybavena zařízením pro ohřev záměsové vody a má celoroční automatický, počítačem řízený provoz. Nabízíme špičkovou kvalitu anhydritových litých potěrů Anhylevel, Anhylevel Heat, Anhylevel Extranivel, cementových litých potěrů CemLevel, konstrukčních betonů, samozhutnitelných betonů Compacton, drátkobetonů, vláknobetonů a písku či štěrku. Dále nabízíme autodopravu mixem, pumpování (čerpání) betonu. Betonárna se nachází v Chomutově a doveze beton i do měst jako Jirkov, Kadaň, Klášterec nad Ohří, Nezabylice či například Málkov.  Cemex usiluje o udržitelnou výstavbu pomocí produktů řady Vertua.",Concrete,-,,-,,-,-,Ústecký kraj,FALSE
,"Štěrkovna Kluk, Cemex Czech Republic, s.r.o. | Provozovna od 1.5. 2023 trvale uzavřena",38,Central Bohemian Region,Poděbrady - Kluk,Czech Republic,29001, 725 530 415,"openTime_1 : 08:00, closeTime_1 : 17:00","openTime_1 : 08:00, closeTime_1 : 17:00","openTime_1 : 08:00, closeTime_1 : 17:00","openTime_1 : 08:00, closeTime_1 : 17:00","openTime_1 : 08:00, closeTime_1 : 17:00","openTime_1 : 08:00, closeTime_1 : 12:00",Closed,-,"ContactName_1 : Concrete Sales,  JobPosition_1 : -,  EmailAddress_1 : -,  PhoneNumber1_1 : 0345 600 6464
ContactName_2 : Concrete Account Orders,  JobPosition_2 : -,  EmailAddress_2 : -,  PhoneNumber1_2 : 01483 454 610
ContactName_3 : Mortar Screed Sales,  JobPosition_3 : -,  EmailAddress_3 : -,  PhoneNumber1_3 : 0345 147 9172",15.12274783,50.13184782,TRUE,"Štěrkovna Kluk nabízí širokou škálu přírodního těženého kameniva, písku a drceného kameniva pro nejrůznější stavební účely. Naše produkty jsou dostupné ve frakcích 0/4, 4/8, 8/16, 16/32, 32/63 a zásypovém materiálu 16/63, 32/63. Nabízíme také možnost dodání systémem Big Bag. Na zakázku můžeme také provést praní kameniva. Naše produkty jsou certifikovány jako zdravotně nezávadné. <br><br>Kromě toho můžeme zákazníkům nabídnout smluvní přepravce, kteří dovezou kamenivo do Nymburka, Kolína, Peček, Poděbrad a jejich okolí. Pokud hledáte kvalitní kamenivo pro stavební účely, nebo na zahradu, obraťte se na naše obchodní zástupce.",Aggregates,-,,-,,-,-,Central Bohemian Region,FALSE
,"Betonárna Jaroměř, Cemex Czech Republic, s.r.o.",Langiewiczova,Královéhradecký kraj,Jaroměř,Czech Republic,551 02, 606 648 249,"openTime_1 : 06:15, closeTime_1 : 17:00","openTime_1 : 06:15, closeTime_1 : 17:00","openTime_1 : 06:15, closeTime_1 : 17:00","openTime_1 : 06:15, closeTime_1 : 17:00","openTime_1 : 06:15, closeTime_1 : 17:00","openTime_1 : 06:15, closeTime_1 : 11:00",Closed,-,"ContactName_1 : Tel,  JobPosition_1 : -,  EmailAddress_1 : -,  PhoneNumber1_1 : 01352 780651
ContactName_2 : Asphalt Sales,  JobPosition_2 : -,  EmailAddress_2 : -,  PhoneNumber1_2 : 0345 155 6367
ContactName_3 : Aggregate Sales,  JobPosition_3 : -,  EmailAddress_3 : -,  PhoneNumber1_3 : 0345 155 7373",15.933204,50.34750061,TRUE,"Betonárna Cemex se nachází v Jaroměři-Josefově a je vybavena moderními technologiemi pro výrobu špičkové kvality betonu. Vybavení betonárny zahrnuje 5-ti komorový zásobník, šikmý pás a vážící skip. Dvourotorová míchačka BHS 2,0 m s hodinovým výkonem 80 m čerstvého betonu zajišťuje celoroční automatický, počítačem řízený provoz. Betonárna je vybavena zařízením pro ohřev kameniva a záměsové vody pro zimní období a recyklační zařízení pro zpracování zbytkového betonu. Nabízíme širokou škálu produktů včetně Anhydritových litých potěrů Anhylevel, Cementových litých potěrů CemLevel, konstrukčních betonů, samozhutnitelných betonů Compacton, drátkobetonů, vláknobetonů, písku a štěrku. Dále nabízíme autodopravu mixem, pumpování a čerpání betonu.",Concrete,-,,-,,-,-,Královéhradecký kraj,FALSE
,"Betonárna Třebíč, Cemex Czech Republic, s.r.o.",Průmyslová 233,Kraj Vysočina,Třebíč,Czech Republic,674 01, 606 748 207,"openTime_1 : 07:00, closeTime_1 : 18:00","openTime_1 : 07:00, closeTime_1 : 18:00","openTime_1 : 07:00, closeTime_1 : 18:00","openTime_1 : 07:00, closeTime_1 : 18:00","openTime_1 : 07:00, closeTime_1 : 18:00","openTime_1 : 07:00, closeTime_1 : 12:00",Closed,-,"ContactName_1 : Concrete Account Orders,  JobPosition_1 : -,  EmailAddress_1 : -,  PhoneNumber1_1 : 0845 155 9215
ContactName_2 : Concrete Sales,  JobPosition_2 : -,  EmailAddress_2 : -,  PhoneNumber1_2 : 0345 600 6464
ContactName_3 : Mortar Screed Sales,  JobPosition_3 : -,  EmailAddress_3 : -,  PhoneNumber1_3 : 0345 147 9172",15.9001801,49.2100672,TRUE,"Betonárna CIFA 1.5 m3 s míchacím jádrem CIFA MB 1500 a hodinovým výkonem 50 m čerstvého betonu. Automatický, počítačem řízený provoz po celý rok. Zařízení pro ohřev záměsové vody a kameniva pro zimní období. Recyklační zařízení pro zpracování zbytkového betonu. Betonárna Cemex se nachází v Třebíči a její špičkové produkty, jako Anhydritové lité potěry Anhylevel, Anhylevel Heat, Anhylevel Extranivel, Cementové lité potěry, CemLevel, konstrukční betony, samozhutnitelné betony Compacton, drátkobetony, vláknobetony, písek a štěrk, jsou dostupné i v okolních obcích a městech jako Budišov, Jaroměřice nad Rokytnou, Zárubice, Náměšť nad Oslavou, Chotěbudice. Cemex usiluje o udržitelnou výstavbu pomocí produktů řady Vertua.",Concrete,-,,-,,-,-,Kraj Vysočina,FALSE
,"Betonárna Litomyšl, Cemex Czech Republic, s.r.o.",Trstěnická 932,Pardubický kraj,Litomyšl,Czech Republic,570 01, 777 792 052,"openTime_1 : 07:30, closeTime_1 : 17:30","openTime_1 : 07:30, closeTime_1 : 17:30","openTime_1 : 07:30, closeTime_1 : 17:30","openTime_1 : 07:30, closeTime_1 : 17:30","openTime_1 : 07:30, closeTime_1 : 17:30","openTime_1 : 07:30, closeTime_1 : 12:30",Closed,-,"ContactName_1 : Shipping Office (North West),  JobPosition_1 : -,  EmailAddress_1 : -,  PhoneNumber1_1 : 0345 115 9265
ContactName_2 : Concrete Sales,  JobPosition_2 : -,  EmailAddress_2 : -,  PhoneNumber1_2 : 0345 600 6464
ContactName_3 : Concrete Account Orders,  JobPosition_3 : -,  EmailAddress_3 : -,  PhoneNumber1_3 : 0345 155 9265
ContactName_4 : Screed Sales,  JobPosition_4 : -,  EmailAddress_4 : -,  PhoneNumber1_4 : 0345 155 9265",16.32633068,49.86113569,TRUE,"Betonárna Stetter M2 s hodinovým výkonem 90 m čerstvého betonu je vybavena automatickým počítačem řízeným provozem a zařízením pro ohřev záměsové vody a předehřev kameniva. Nabízíme také recyklační zařízení pro zpracování zbytkového betonu. Betonárna Cemex se nachází v Litomyšli a její služby jsou dostupné i v okolních městech jako jsou Němčice, Strakov, Janov. Čistá či Osík. Nabízíme špičkovou kvalitu produktů jako jsou Anhydritové lité potěry Anhylevel, Anhylevel Heat, Anhylevel Extranivel, konstrukční betony, samozhutnitelné betony Compacton, drátkobetony, vláknobetony, písek a štěrk. Nabízíme autodopravu mixem, pumpování (čerpání) betonu. Cemex usiluje o udržitelnou výstavbu pomocí produktů řady Vertua.",Concrete,-,,-,,-,-,Pardubický kraj,FALSE
,"Lom Bílkovice, Cemex Czech Republic, s.r.o.",Okres Benešov,Středočeský kraj,Radošovice,Czech Republic,257 26, 773 782 781,"openTime_1 : 07:00, closeTime_1 : 17:00","openTime_1 : 07:00, closeTime_1 : 17:00","openTime_1 : 07:00, closeTime_1 : 17:00","openTime_1 : 07:00, closeTime_1 : 17:00","openTime_1 : 07:00, closeTime_1 : 17:00","openTime_1 : 07:00, closeTime_1 : 12:00",Closed,-,"ContactName_1 : Tel,  JobPosition_1 : -,  EmailAddress_1 : -,  PhoneNumber1_1 : 0845 155 1823
ContactName_2 : Aggregate Sales,  JobPosition_2 : -,  EmailAddress_2 : -,  PhoneNumber1_2 : 0345 155 9229",14.853806,49.75731,TRUE,"Kamenolom Bílkovice je nabízí prodej kameniva, písku a drceného kameniva pro nejrůznější stavební účely, včetně zahradního kameniva. Můžete si u nás vybrat z širokého sortimentu hornin, jako je ortorula až granit, a frakcí 0/4, 0/8, 4/8, 8/16, 16/32, 0/32, 0/32Z, 0/63, 32/63, 63/125 a 0/125. K dispozici jsou také lomový kámen tříděný a lomový kámen záhozový, netříděný.<br><br>Kamenolom Bílkovice nabízí také možnost přepravy kameniva do Vlašimi, Divišova, Struhařova, Benešova, Chotýšan a okolí. Prodloužení výdejní doby je možné na základě povolení obchodního zástupce. Pokud hledáte kvalitní kamenivo pro stavební účely, nebo na zahradu, obraťte se na našeho obchodního zástupce.",Aggregates,-,,-,,-,-,Středočeský kraj,FALSE
,"Betonárna Ústí nad Orlicí - Cemex Czech Republic, s.r.o.",Moravská 537,Pardubický kraj,Ústí nad Orlicí,Czech Republic,562 01, 724 222 843,"openTime_1 : 07:00, closeTime_1 : 17:00","openTime_1 : 07:00, closeTime_1 : 17:00","openTime_1 : 07:00, closeTime_1 : 17:00","openTime_1 : 07:00, closeTime_1 : 17:00","openTime_1 : 07:30, closeTime_1 : 17:00","openTime_1 : 07:00, closeTime_1 : 12:00",Closed,-,"ContactName_1 : Concrete Sales,  JobPosition_1 : -,  EmailAddress_1 : -,  PhoneNumber1_1 : 01422 718 984
ContactName_2 : Concrete Account Orders,  JobPosition_2 : -,  EmailAddress_2 : -,  PhoneNumber1_2 : 0345 155 6053
ContactName_3 : Mortar Screed Sales,  JobPosition_3 : -,  EmailAddress_3 : -,  PhoneNumber1_3 : 01788 462016",16.4180962,49.9563796,TRUE,"Betonárna Cemex se nachází v Ústí nad Orlicí a nabízí špičkovou kvalitu betonu. Naše betonárna je vybavena dvourotorovou míchačkou BHS 2,5 m s hodinovým výkonem 100 m čerstvého betonu a mobilním kontejnerovým zásobníkem. Betonárna je vybavena zařízením pro ohřev kameniva a záměsové vody pro zimní období a recyklačním zařízením pro zpracování zbytkového betonu. Nabízíme širokou škálu produktů, jako jsou anhydritové lité potěry, cementové lité potěry, konstrukční betony, samozhutnitelné betony Compacton, drátkobetony, vláknobetony, písek a štěrk. Dále nabízíme autodopravu mixem, pumpování (čerpání) betonu. Naše betonárna je vhodná pro stavební projekty v Ústí nad Orlicí, ale také v okolních městech jako jsou Česká Třebová či Letohrad.",Concrete,-,,-,,-,-,Pardubický kraj,FALSE
,"Betonárna Uherský Brod, Cemex Czech Republic, s.r.o.",Vazová,Zlín Region,Uhersky Brod,Czech Republic,688 01, 721 737 222,"openTime_1 : 06:00, closeTime_1 : 19:00","openTime_1 : 06:00, closeTime_1 : 19:00","openTime_1 : 06:00, closeTime_1 : 19:00","openTime_1 : 06:00, closeTime_1 : 19:00","openTime_1 : 06:00, closeTime_1 : 19:00","openTime_1 : 06:00, closeTime_1 : 12:00",Closed,-,"ContactName_1 : Concrete Sales,  JobPosition_1 : -,  EmailAddress_1 : -,  PhoneNumber1_1 : 0345 600 6464
ContactName_2 : Concrete Account Orders,  JobPosition_2 : -,  EmailAddress_2 : -,  PhoneNumber1_2 : 01432 265 819
ContactName_3 : Mortar Screed Sales,  JobPosition_3 : -,  EmailAddress_3 : -,  PhoneNumber1_3 : 0345 147 9172",17.6291927,49.0217555,TRUE,"Betonárna Stetter H1.0 s hodinovým výkonem 50 m čerstvého betonu se nachází v Uherském Brodě. Nabízíme špičkovou kvalitu anhydritových litých potěrů Anhylevel, Anhylevel Heat, Anhylevel Extranivel, cementových litých potěrů CemLevel, konstrukčních betonů, samozhutnitelných betonů Compacton, drátkobetonů, vláknobetonů a písku či štěrku. Dále poskytujeme autodopravu mixem, pumpování (čerpání) betonu. Společnost Cemex dbá na udržitelnost pomocí produktů řady Vertua, které usilují o udržitelnou výstavbu. Naše betonárna dokáže dovézt čerstvý beton do okolních měst jako jsou Uherský Ostroh, Staré Město, Kostelec na Hané, Otrokovice a Vlčnov. Na našich stránkách si také můžete spočítat objem betonu a získat nezávaznou cenovou nabídku!",Concrete,-,,-,,-,-,Zlín Region,FALSE
,"Betonárna Třinec, Cemex Czech Republic, s.r.o.",Frýdecká,Moravskoslezský kraj,Třinec 1,Czech Republic,739 61, 596 539 520,"openTime_1 : 06:00, closeTime_1 : 16:00","openTime_1 : 06:00, closeTime_1 : 16:00","openTime_1 : 06:00, closeTime_1 : 16:00","openTime_1 : 06:00, closeTime_1 : 16:00","openTime_1 : 06:00, closeTime_1 : 16:00","openTime_1 : 06:00, closeTime_1 : 11:00",Closed,-,"ContactName_1 : Aggregate Asphalt Sales,  JobPosition_1 : -,  EmailAddress_1 : -,  PhoneNumber1_1 : 0345 155 9208
ContactName_2 : Tel,  JobPosition_2 : -,  EmailAddress_2 : -,  PhoneNumber1_2 : 01543 482 081",18.6533624,49.6704163,TRUE,"Betonárna STETTER M2-T2 s objemem mísícího jádra 2 m a hodinovým výkonem 60 m čerstvého betonu. Automatický, počítačem řízený provoz po celý rok. Zařízení pro ohřev záměsové vody pro zimní období. Recyklační zařízení pro zpracování zbytkového betonu. Betonárna se nachází v Třinci a její služby jsou dostupné i v okolí jako například Český Těšín, Jablunkov, Vendryně, Hrádek či Horní Domaslavice. Nabízíme špičkovou kvalitu produktů jako jsou Anhydritové lité potěry Anhylevel, Anhylevel Heat, Anhylevel Extranivel, Cementové lité potěry, CemLevel, konstrukční betony, samozhutnitelné betony Compacton, drátkobetony, vláknobetony, písek a štěrk. Autodopravu mixem, pumpování (čerpání) betonu. Udržitelnou výstavbu podporujeme produkty řady Vertua.",Concrete,-,,-,,-,-,Moravskoslezský kraj,FALSE
,"Betonárna Valašské Klobouky, Cemex Czech Republic, s.r.o.",Sychrov,Zlínský kraj,Valašské Klobouky,Czech Republic,766 01, 724 066 000,"openTime_1 : 07:00, closeTime_1 : 17:00","openTime_1 : 07:00, closeTime_1 : 17:00","openTime_1 : 07:00, closeTime_1 : 17:00","openTime_1 : 07:00, closeTime_1 : 17:00","openTime_1 : 07:00, closeTime_1 : 17:00","openTime_1 : 07:00, closeTime_1 : 10:00",Closed,-,"ContactName_1 : Concrete Sales,  JobPosition_1 : -,  EmailAddress_1 : -,  PhoneNumber1_1 : 0345 600 6464
ContactName_2 : Concrete Account Orders,  JobPosition_2 : -,  EmailAddress_2 : -,  PhoneNumber1_2 : 01727 860 115
ContactName_3 : Mortar Screed Sales,  JobPosition_3 : -,  EmailAddress_3 : -,  PhoneNumber1_3 : 0345 147 9172
ContactName_4 : Aggregate Sales,  JobPosition_4 : -,  EmailAddress_4 : -,  PhoneNumber1_4 : 0345 155 9208",17.99178156,49.1447534,TRUE,"Betonárna MERKO HBS 1,5m3 T/NS s hodinovým výkonem 60 m čerstvého betonu je situována v Valašských Kloboukách na Sychrově. Nabízíme špičkovou kvalitu anhydritových litých potěrů Anhylevel, Anhylevel Heat, Anhylevel Extranivel, cementových litých potěrů CemLevel, konstrukční betony, samozhutnitelné betony Compacton, drátkobetony, vláknobetony, písek a štěrk. Naše betonárna poskytuje autodopravu mixem, pumpování a čerpání betonu. Cemex usiluje o udržitelnou výstavbu pomocí produktů řady Vertua. Naše betonárna je dostupná pro obyvatele Dolní Lhoty, Horní Lhoty, Újezdu u Valašských Klobouk, Študlova či Nedašovy Lhoty. Na našich stránkách si můžete spočítat objem betonu a zíkat nezávaznou cenovou nabídku.",Concrete,-,,-,,-,-,Zlínský kraj,FALSE
,"Betonárna Otrokovice - Cemex Czech Republic, s.r.o.",třída Tomáše Bati 1764,Zlínský kraj,Otrokovice,Czech Republic,765 02, 602 522 969,"openTime_1 : 07:30, closeTime_1 : 17:30","openTime_1 : 07:30, closeTime_1 : 17:30","openTime_1 : 07:30, closeTime_1 : 17:30","openTime_1 : 07:30, closeTime_1 : 17:30","openTime_1 : 07:30, closeTime_1 : 17:30","openTime_1 : 07:00, closeTime_1 : 11:00",Closed,-,"ContactName_1 : Tel,  JobPosition_1 : -,  EmailAddress_1 : -,  PhoneNumber1_1 : 0345 155 9229",17.51188377,49.20984358,TRUE,"Betonárna Merko MEV 1500 s objemem mísícího jádra 1m a hodinovým výkonem 45 m čerstvého betonu se nachází v Otrokovicích. Nabízíme špičkovou kvalitu anhydritových litých potěrů Anhylevel, Anhylevel Heat, Anhylevel Extranivel, cementových litých potěrů CemLevel, konstrukční betony, samozhutnitelné betony Compacton, drátkobetony, vláknobetony, písek a štěrk. Kromě toho poskytujeme autodopravu mixem, pumpování a čerpání betonu. Naše betonárna v Otrokovicích usiluje o udržitelnou výstavbu pomocí produktů řady Vertua. Díky naší autodopravě můžeme dovážet čerstvý beton do okolních měst jako jsou Uherské Hradiště, Kroměříž, Tlumačov, Holešov či Zlín. Spočítejte si u nás objem betonu a získejte nezávaznou cenovou nabídku!",Concrete,-,,-,,-,-,Zlínský kraj,FALSE
,"Betonárna Jevíčko, Cemex Czech Republic, s.r.o.",Olomoucká 226,Pardubický kraj,Jevíčko,Czech Republic,569 92, 606 122 896,"openTime_1 : 07:00, closeTime_1 : 17:00","openTime_1 : 07:00, closeTime_1 : 17:00","openTime_1 : 07:00, closeTime_1 : 17:00","openTime_1 : 07:00, closeTime_1 : 17:00","openTime_1 : 07:30, closeTime_1 : 17:00","openTime_1 : 07:00, closeTime_1 : 12:00",Closed,-,"ContactName_1 : Tel,  JobPosition_1 : -,  EmailAddress_1 : -,  PhoneNumber1_1 : 01462 431438
ContactName_2 : Aggregate Sales,  JobPosition_2 : -,  EmailAddress_2 : -,  PhoneNumber1_2 : 0345 155 9208",16.7172239,49.6317798,TRUE,"Betonárna Strojbet MNB 500 s mísícím zařízením H 0,33 a objemem mísícího jádra 0,33 m je schopna vyrobit až 15 m čerstvého betonu za hodinu. Nachází se v Jevíčku a její služby jsou dostupné i v okolních městech jako jsou Moravská Třebová, Polička, Ústí nad Orlicí, Vraclav, nebo třeba Víska u Jevíčka. Nabízíme špičkovou kvalitu anhydritových litých potěrů Anhylevel, Anhylevel Heat, Anhylevel Extranivel, cementových litých potěrů CemLevel, konstrukční betony, samozhutnitelné betony Compacton, drátkobetony, vláknobetony, písek a štěrk. Autodopravu mixem, pumpování a čerpání betonu. Naše produkty řady Vertua navíc pomáhají udržitelnosti výstavby. Na našich stránkách si můžete spočítat objem betonu a získat nezávaznou cenovou nabídku!",Concrete,-,,-,,-,-,Pardubický kraj,FALSE
,"Betonárna Náklo, Cemex Czech Republic, s.r.o.",E442,Olomouc Region,Náklo,Czech Republic,78332, 606 748 206,"openTime_1 : 07:00, closeTime_1 : 17:00","openTime_1 : 07:00, closeTime_1 : 17:00","openTime_1 : 07:00, closeTime_1 : 17:00","openTime_1 : 07:00, closeTime_1 : 17:00","openTime_1 : 07:30, closeTime_1 : 17:00","openTime_1 : 07:00, closeTime_1 : 12:00",Closed,-,"ContactName_1 : Concrete Sales,  JobPosition_1 : -,  EmailAddress_1 : -,  PhoneNumber1_1 : 01484 216 981
ContactName_2 : Concrete Account Orders,  JobPosition_2 : -,  EmailAddress_2 : -,  PhoneNumber1_2 : 0345 155 6053
ContactName_3 : Mortar Screed Sales,  JobPosition_3 : -,  EmailAddress_3 : -,  PhoneNumber1_3 : 01788 462016",17.1232732,49.66968937,TRUE,"Betonárna Stetter H 1.0 s mísícím jádrem o objemu 1 m a hodinovým výkonem 38 m čerstvého betonu je vybavena zařízením pro ohřev záměsové vody a recyklačním zařízením pro zpracování zbytkového betonu. Celoroční automatický, počítačem řízený provoz. Betonárka se nachází v Nákle a její služby jsou dostupné i v okolí jako například v obcích Těšíkov, Senice na Hané, Hraničné Petrovice, Březová, Holice a další. Nabízíme špičkovou kvalitu produktů jako jsou Anhydritové lité potěry Anhylevel, Anhylevel Heat, Anhylevel Extranivel, Cementové lité potěry, CemLevel, konstrukční betony, samozhutnitelné betony Compacton, drátkobetony, vláknobetony, písek a štěrk. Dále nabízíme autodopravu mixem, pumpování (čerpání) betonu.",Concrete,-,,-,,-,-,Olomouc Region,FALSE
,"Betonárna Dětmarovice - Cemex Czech Republic, s.r.o.",areál EDĚ,Moravskoslezský kraj,Dětmarovice,Czech Republic,735 71, 723 562 408,"openTime_1 : 07:00, closeTime_1 : 17:00","openTime_1 : 07:00, closeTime_1 : 17:00","openTime_1 : 07:00, closeTime_1 : 17:00","openTime_1 : 07:00, closeTime_1 : 17:00","openTime_1 : 07:00, closeTime_1 : 17:00",Closed,Closed,-,"ContactName_1 : 0845 155 2429,  JobPosition_1 : Manager,  EmailAddress_1 : -,  PhoneNumber1_1 : Aggregate Sales",18.4619444,49.9102778,TRUE,"Betonárna Merko BHS 1,67 M s míchacím zařízením DKX 1,67 nabízí špičkovou kvalitu čerstvého betonu s hodinovým výkonem 50 m. Celoroční poloautomatický provoz je vybaven zařízením pro ohřev záměsové vody pro zimní období. Betonárna Cemex se nachází v Dětmarovicích a nabízí produkty špičkové kvality jako Anhydritové lité potěry Anhylevel, Anhylevel Heat, Anhylevel Extranivel, Cementové lité potěry, CemLevel, konstrukční betony, samozhutnitelné betony Compacton, drátkobetony, vláknobetony, písek a štěrk. Kromě toho nabízíme autodopravu mixem, pumpování (čerpání) betonu. Naše betonárna je vhodná pro projekty v okolí Dětmarovic, ale také v okolí dalších měst jako Orlová, Havířov, Petrovice u Karviné, Šenov a Stonava. Objednejte si beton u nás!",Concrete,-,,-,,-,-,Moravskoslezský kraj,FALSE
,"Betonárna Praha - Stodůlky, Cemex Czech Republic, s.r.o.",K Hájům 946,Hlavní město Praha,Praha,Czech Republic,155 00, 257 257 600,"openTime_1 : 07:00, closeTime_1 : 17:00","openTime_1 : 07:00, closeTime_1 : 17:00","openTime_1 : 07:00, closeTime_1 : 17:00","openTime_1 : 07:00, closeTime_1 : 17:00","openTime_1 : 07:30, closeTime_1 : 17:00","openTime_1 : 07:00, closeTime_1 : 12:00",Closed,-,"ContactName_1 : Concrete Sales,  JobPosition_1 : -,  EmailAddress_1 : -,  PhoneNumber1_1 : 01482 293 921
ContactName_2 : Concrete Account Orders,  JobPosition_2 : -,  EmailAddress_2 : -,  PhoneNumber1_2 : 0345 155 6053
ContactName_3 : Mortar Screed Sales,  JobPosition_3 : -,  EmailAddress_3 : -,  PhoneNumber1_3 : 01788 462016",14.3265559,50.0578556,TRUE,"Betonárna TEKA 2 m s hodinovým výkonem 60 m čerstvého betonu se nachází v Praze na Stodůlkách. Je vybavena zařízením pro ohřev záměsové vody a má celoroční automatický, počítačem řízený provoz. Nabízíme špičkovou kvalitu anhydritových litých potěrů Anhylevel, Anhylevel Heat, Anhylevel Extranivel, cementových litých potěrů CemLevel, konstrukčních betonů, samozhutnitelných betonů Compacton, drátkobetonů, vláknobetonů a písku či štěrku. Autodopravu mixem, pumpování a čerpání betonu. Naše betonárna je ideální pro stavební projekty v okolí Prahy Stodůlke, jako jsou například Roztoky, Horoměřice, Řeporyje, Lochkov, nebo Chýně.Společnost Cemex se také zabývá udržitelností výstavby v rámci projektu Vertua. Těšíme se na Vaši návštěvu!",Concrete,-,,-,,-,-,Hlavní město Praha,FALSE
,"Betonárna Mikulov, Cemex Czech Republic, s.r.o.",Jiráskova 13,Jihomoravský kraj,Mikulov-Mikulov na Moravě,Czech Republic,692 01, 721 820 248,"openTime_1 : 07:30, closeTime_1 : 17:30","openTime_1 : 07:30, closeTime_1 : 17:30","openTime_1 : 07:30, closeTime_1 : 17:30","openTime_1 : 07:30, closeTime_1 : 17:30","openTime_1 : 07:30, closeTime_1 : 17:30","openTime_1 : 07:30, closeTime_1 : 12:00",Closed,-,"ContactName_1 : Shipping Office (North West),  JobPosition_1 : -,  EmailAddress_1 : -,  PhoneNumber1_1 : 0345 155 9265
ContactName_2 : Concrete Sales,  JobPosition_2 : -,  EmailAddress_2 : -,  PhoneNumber1_2 : 0345 600 6464
ContactName_3 : Concrete Account Orders,  JobPosition_3 : -,  EmailAddress_3 : -,  PhoneNumber1_3 : 0345 155 9265
ContactName_4 : Screed Sales,  JobPosition_4 : -,  EmailAddress_4 : -,  PhoneNumber1_4 : 0345 155 9265",16.62674338,48.7981695,TRUE,"Betonárna Stetter H1.0 s hodinovým výkonem 50 m čerstvého betonu se nachází v Mikulově. Nabízíme špičkovou kvalitu anhydritových litých potěrů Anhylevel, Anhylevel Heat, Anhylevel Extranivel, cementových litých potěrů CemLevel, konstrukčních betonů, samozhutnitelných betonů Compacton, drátkobetonů a vláknobetonů. Kromě toho prodáváme také písek a štěrk. Naše autodoprava mixem, pumpování a čerpání betonu uspokojí i ty nejnáročnější zákazníky. Naše betonárna je vyhledávána v okolí měst Mikulov, Břeclav, Znojmo, Valtice, Lednice a Hodonín. U nás si můžete objednat čerstvý beton pro vaše projekty a my ho dovezeme až k vám. Spočítejte si u nás objem a cenu betonu. Cemex se teké snaží o udržitelnější výstavbu pomocí produktů řady Vertua.",Concrete,-,,-,,-,-,Jihomoravský kraj,FALSE
,"Betonárna Klecany - Cemex Czech Republic, s.r.o.",Československé armády,Středočeský kraj,Klecany,Czech Republic,250 67, 257 257 600,"openTime_1 : 07:00, closeTime_1 : 16:15","openTime_1 : 07:00, closeTime_1 : 16:15","openTime_1 : 07:00, closeTime_1 : 16:15","openTime_1 : 07:00, closeTime_1 : 16:15","openTime_1 : 07:00, closeTime_1 : 16:15","openTime_1 : 07:00, closeTime_1 : 12:00",Closed,-,"ContactName_1 : Concrete Sales,  JobPosition_1 : -,  EmailAddress_1 : -,  PhoneNumber1_1 : 0345 600 6464
ContactName_2 : Concrete Account Orders,  JobPosition_2 : -,  EmailAddress_2 : -,  PhoneNumber1_2 : 0121 359 7887
ContactName_3 : Mortar Screed Sales,  JobPosition_3 : -,  EmailAddress_3 : -,  PhoneNumber1_3 : 0345 147 9172",14.40257907,50.17968611,TRUE,"Betonárna CE 50,1 m s hodinovým výkonem 40 m čerstvého betonu je vybavena zařízením pro ohřev záměsové vody a má celoroční automatický, počítačem řízený provoz. Betonárka se nachází v Klecanech a její služby jsou dostupné i v okolních městech jako jsou Praha, Roztoky, Libčice, Dolany, Tursko či například Únětice. Nabízíme špičkovou kvalitu anhydritových litých potěrů Anhylevel, Anhylevel Heat, Anhylevel Extranivel, cementových litých potěrů CemLevel, konstrukčních betonů, samozhutnitelných betonů Compacton, drátkobetonů, vláknobetonů, písku a štěrku. Kromě toho poskytujeme autodopravu mixem, pumpování (čerpání) betonu. Cemex se zavazuje k udržitelné výstavbě pomocí produktů řady Vertua. Na našish stránkách si můžete spočítat objem betonu.",Concrete,-,,-,,-,-,Středočeský kraj,FALSE
